{"type": "FeatureCollection", "features": [{"type": "Feature", "geometry": {"type": "Point", "coordinates": [139.7004982, 35.6594951]}, "properties": {"name": "Shibuya Scramble Crossing", "name_ja": null, "category": "crossing", "source": "soundscape", "note": "The crossing itself — best around a signal change, expect crowd noise", "area": "Shibuya", "apple": "https://maps.apple.com/?q=Shibuya%20Scramble%20Crossing&ll=35.6594951,139.7004982"}}, {"type": "Feature", "geometry": {"type": "Point", "coordinates": [139.7006, 35.6896]}, "properties": {"name": "Shinjuku Station South Exit", "name_ja": null, "category": "station", "source": "soundscape", "note": "Departure melodies — try platform level if accessible", "area": "Shinjuku", "apple": "https://maps.apple.com/?q=Shinjuku%20Station%20South%20Exit&ll=35.6896,139.7006"}}, {"type": "Feature", "geometry": {"type": "Point", "coordinates": [139.7024144, 35.6705019]}, "properties": {"name": "Harajuku Station", "name_ja": null, "category": "station", "source": "soundscape", "note": "Departure melody + crossing/street noise outside", "area": "Harajuku", "apple": "https://maps.apple.com/?q=Harajuku%20Station&ll=35.6705019,139.7024144"}}, {"type": "Feature", "geometry": {"type": "Point", "coordinates": [139.6996266, 35.6748417]}, "properties": {"name": "Meiji Shrine (main torii)", "name_ja": null, "category": "shrine", "source": "soundscape", "note": "Gravel footsteps under the forest canopy, very different from street noise", "area": "Harajuku", "apple": "https://maps.apple.com/?q=Meiji%20Shrine%20%28main%20torii%29&ll=35.6748417,139.6996266"}}, {"type": "Feature", "geometry": {"type": "Point", "coordinates": [139.7058, 35.6933]}, "properties": {"name": "Hanazono Shrine", "name_ja": "花園神社", "category": "shrine", "source": "soundscape", "note": "Small shrine tucked into Kabukicho — already verified for the itinerary", "area": "Shinjuku", "apple": "https://maps.apple.com/?q=Hanazono%20Shrine&ll=35.6933,139.7058"}}, {"type": "Feature", "geometry": {"type": "Point", "coordinates": [139.7955265, 35.7134032]}, "properties": {"name": "Senso-ji", "name_ja": "浅草寺", "category": "shrine", "source": "soundscape", "note": "Nakamise-dori approach + temple grounds — try both", "area": "Asakusa", "apple": "https://maps.apple.com/?q=Senso-ji&ll=35.7134032,139.7955265"}}, {"type": "Feature", "geometry": {"type": "Point", "coordinates": [139.7745414, 35.7100241]}, "properties": {"name": "Ameyoko Market", "name_ja": "アメ横", "category": "market", "source": "soundscape", "note": "Market callers/vendors — busiest midday, quieter early morning", "area": "Ueno", "apple": "https://maps.apple.com/?q=Ameyoko%20Market&ll=35.7100241,139.7745414"}}]}