{"type":"FeatureCollection","features":[{"type":"Feature","geometry":{"type":"Point","coordinates":[139.660365,35.8514933]},"properties":{"name":"Osuzu","name_ja":null,"category":"japaneat","source":"japaneat","note":"https://www.youtube.com/embed/WQmruiSZtes","apple":"https://maps.apple.com/?q=Osuzu&ll=35.8514933,139.660365"}},{"type":"Feature","geometry":{"type":"Point","coordinates":[139.7308949,35.7307897]},"properties":{"name":"Sansetsu","name_ja":null,"category":"japaneat","source":"japaneat","note":"https://www.youtube.com/embed/LvxlUFXzLu4","apple":"https://maps.apple.com/?q=Sansetsu&ll=35.7307897,139.7308949"}},{"type":"Feature","geometry":{"type":"Point","coordinates":[139.6523906,35.859415]},"properties":{"name":"娘娘浦和仲町店","name_ja":null,"category":"japaneat","source":"japaneat","note":"https://www.youtube.com/embed/oJKTGnui69M","apple":"https://maps.apple.com/?q=%E5%A8%98%E5%A8%98%E6%B5%A6%E5%92%8C%E4%BB%B2%E7%94%BA%E5%BA%97&ll=35.859415,139.6523906"}},{"type":"Feature","geometry":{"type":"Point","coordinates":[139.6713956,35.7374459]},"properties":{"name":"Ekoda Aburiya","name_ja":null,"category":"japaneat","source":"japaneat","note":"https://www.youtube.com/embed/VU9Doa9zkkI","apple":"https://maps.apple.com/?q=Ekoda%20Aburiya&ll=35.7374459,139.6713956"}},{"type":"Feature","geometry":{"type":"Point","coordinates":[139.7188709,35.7293008]},"properties":{"name":"Pikachu Sweets Cafe","name_ja":null,"category":"japaneat","source":"japaneat","note":"https://www.youtube.com/embed/CmYVe_kNLtI","apple":"https://maps.apple.com/?q=Pikachu%20Sweets%20Cafe&ll=35.7293008,139.7188709"}},{"type":"Feature","geometry":{"type":"Point","coordinates":[139.708639,35.6708688]},"properties":{"name":"Tacos 3Hermanos Harajuku Tacos Public Hall","name_ja":null,"category":"japaneat","source":"japaneat","note":"https://www.youtube.com/embed/SD82S6u3vug","apple":"https://maps.apple.com/?q=Tacos%203Hermanos%20Harajuku%20Tacos%20Public%20Hall&ll=35.6708688,139.708639"}},{"type":"Feature","geometry":{"type":"Point","coordinates":[139.6683615,35.6635334]},"properties":{"name":"BURGERS TOKYO","name_ja":null,"category":"japaneat","source":"japaneat","note":"https://www.youtube.com/embed/Va3RFxepcDY","apple":"https://maps.apple.com/?q=BURGERS%20TOKYO&ll=35.6635334,139.6683615"}},{"type":"Feature","geometry":{"type":"Point","coordinates":[139.771423,35.6977895]},"properties":{"name":"Kurikoan","name_ja":null,"category":"japaneat","source":"japaneat","note":"https://www.youtube.com/embed/30rtRx7UgSY","apple":"https://maps.apple.com/?q=Kurikoan&ll=35.6977895,139.771423"}},{"type":"Feature","geometry":{"type":"Point","coordinates":[139.6951033,35.7266403]},"properties":{"name":"Nanten","name_ja":null,"category":"japaneat","source":"japaneat","note":"https://www.youtube.com/embed/7sFp5Pdl-s0","apple":"https://maps.apple.com/?q=Nanten&ll=35.7266403,139.6951033"}},{"type":"Feature","geometry":{"type":"Point","coordinates":[139.774683,35.6989712]},"properties":{"name":"マルショーラーメン","name_ja":null,"category":"japaneat","source":"japaneat","note":"https://www.youtube.com/embed/tNb5Ia3o3o4","apple":"https://maps.apple.com/?q=%E3%83%9E%E3%83%AB%E3%82%B7%E3%83%A7%E3%83%BC%E3%83%A9%E3%83%BC%E3%83%A1%E3%83%B3&ll=35.6989712,139.774683"}},{"type":"Feature","geometry":{"type":"Point","coordinates":[139.7059784,35.690936]},"properties":{"name":"futamata","name_ja":null,"category":"japaneat","source":"japaneat","note":"https://www.youtube.com/embed/zgJ8L4F8yLg","apple":"https://maps.apple.com/?q=futamata&ll=35.690936,139.7059784"}},{"type":"Feature","geometry":{"type":"Point","coordinates":[139.6879468,35.7237222]},"properties":{"name":"Matsuba","name_ja":null,"category":"japaneat","source":"japaneat","note":"https://www.youtube.com/embed/e3FOVjUDT3o","apple":"https://maps.apple.com/?q=Matsuba&ll=35.7237222,139.6879468"}},{"type":"Feature","geometry":{"type":"Point","coordinates":[139.7355724,35.6569067]},"properties":{"name":"Nim's Pizza","name_ja":null,"category":"japaneat","source":"japaneat","note":"https://www.youtube.com/embed/jZfRpsbqAzs","apple":"https://maps.apple.com/?q=Nim's%20Pizza&ll=35.6569067,139.7355724"}},{"type":"Feature","geometry":{"type":"Point","coordinates":[139.6721801,35.7373216]},"properties":{"name":"Syogaya","name_ja":null,"category":"japaneat","source":"japaneat","note":"https://www.youtube.com/embed/gHbFd-O5k78","apple":"https://maps.apple.com/?q=Syogaya&ll=35.7373216,139.6721801"}},{"type":"Feature","geometry":{"type":"Point","coordinates":[139.5781596,35.7056333]},"properties":{"name":"WORLD BREAKFAST ALLDAY Kichijoji","name_ja":null,"category":"japaneat","source":"japaneat","note":"https://www.youtube.com/embed/Vr5nsc6SmYQ","apple":"https://maps.apple.com/?q=WORLD%20BREAKFAST%20ALLDAY%20Kichijoji&ll=35.7056333,139.5781596"}},{"type":"Feature","geometry":{"type":"Point","coordinates":[139.6348884,35.7507566]},"properties":{"name":"けや木","name_ja":null,"category":"japaneat","source":"japaneat","note":"https://www.youtube.com/embed/4_-wMEqZhs8","apple":"https://maps.apple.com/?q=%E3%81%91%E3%82%84%E6%9C%A8&ll=35.7507566,139.6348884"}},{"type":"Feature","geometry":{"type":"Point","coordinates":[139.5999931,35.7043345]},"properties":{"name":"Kumamoto Ramen Higomonzu","name_ja":null,"category":"japaneat","source":"japaneat","note":"https://www.youtube.com/embed/pmUdT7DGw8M","apple":"https://maps.apple.com/?q=Kumamoto%20Ramen%20Higomonzu&ll=35.7043345,139.5999931"}},{"type":"Feature","geometry":{"type":"Point","coordinates":[139.753732,35.656318]},"properties":{"name":"Wild Red Pasta","name_ja":null,"category":"japaneat","source":"japaneat","note":"https://www.youtube.com/embed/ftNHB5vZqk4","apple":"https://maps.apple.com/?q=Wild%20Red%20Pasta&ll=35.656318,139.753732"}},{"type":"Feature","geometry":{"type":"Point","coordinates":[139.6684335,35.7390954]},"properties":{"name":"yahman","name_ja":null,"category":"japaneat","source":"japaneat","note":"https://www.youtube.com/embed/038dZ9vlomA","apple":"https://maps.apple.com/?q=yahman&ll=35.7390954,139.6684335"}},{"type":"Feature","geometry":{"type":"Point","coordinates":[139.6684099,35.7391104]},"properties":{"name":"Hello Old Timer","name_ja":null,"category":"japaneat","source":"japaneat","note":"https://www.youtube.com/embed/9la3xg3xDM0","apple":"https://maps.apple.com/?q=Hello%20Old%20Timer&ll=35.7391104,139.6684099"}},{"type":"Feature","geometry":{"type":"Point","coordinates":[139.6719595,35.7375897]},"properties":{"name":"Chinese restaurant Ryukaen","name_ja":null,"category":"japaneat","source":"japaneat","note":"https://www.youtube.com/embed/h-COvcM5RDg","apple":"https://maps.apple.com/?q=Chinese%20restaurant%20Ryukaen&ll=35.7375897,139.6719595"}},{"type":"Feature","geometry":{"type":"Point","coordinates":[139.6759226,35.6811413]},"properties":{"name":"& Cafe Shirofuwa Laundry Hatagayakitaten Coin Laundry","name_ja":null,"category":"japaneat","source":"japaneat","note":"https://www.youtube.com/embed/nJSDFhLR3dE","apple":"https://maps.apple.com/?q=%26%20Cafe%20Shirofuwa%20Laundry%20Hatagayakitaten%20Coin%20Laundry&ll=35.6811413,139.6759226"}},{"type":"Feature","geometry":{"type":"Point","coordinates":[139.6772157,35.6792619]},"properties":{"name":"Nejishiki","name_ja":null,"category":"japaneat","source":"japaneat","note":"https://www.youtube.com/embed/HFulhHBSsTY","apple":"https://maps.apple.com/?q=Nejishiki&ll=35.6792619,139.6772157"}},{"type":"Feature","geometry":{"type":"Point","coordinates":[139.726801,35.7276567]},"properties":{"name":"ごはんカフェMARE HALAL","name_ja":null,"category":"japaneat","source":"japaneat","note":"https://www.youtube.com/embed/XY5B-sxjOXI","apple":"https://maps.apple.com/?q=%E3%81%94%E3%81%AF%E3%82%93%E3%82%AB%E3%83%95%E3%82%A7MARE%20HALAL&ll=35.7276567,139.726801"}},{"type":"Feature","geometry":{"type":"Point","coordinates":[139.6735413,35.7316579]},"properties":{"name":"Hakuryu Tomato House","name_ja":null,"category":"japaneat","source":"japaneat","note":"https://www.youtube.com/embed/Y0g2bLTW5S0","apple":"https://maps.apple.com/?q=Hakuryu%20Tomato%20House&ll=35.7316579,139.6735413"}},{"type":"Feature","geometry":{"type":"Point","coordinates":[139.7677704,35.6963892]},"properties":{"name":"Ushio","name_ja":null,"category":"japaneat","source":"japaneat","note":"https://www.youtube.com/embed/9u9zRkERw3U","apple":"https://maps.apple.com/?q=Ushio&ll=35.6963892,139.7677704"}},{"type":"Feature","geometry":{"type":"Point","coordinates":[139.6678799,35.7392571]},"properties":{"name":"Kitchen Obasan","name_ja":null,"category":"japaneat","source":"japaneat","note":"https://www.youtube.com/embed/3knIJgm_nZs","apple":"https://maps.apple.com/?q=Kitchen%20Obasan&ll=35.7392571,139.6678799"}},{"type":"Feature","geometry":{"type":"Point","coordinates":[139.6971452,35.7007761]},"properties":{"name":"辛麺 華火｜大久保店","name_ja":null,"category":"japaneat","source":"japaneat","note":"https://www.youtube.com/embed/nQILZBfmcEk","apple":"https://maps.apple.com/?q=%E8%BE%9B%E9%BA%BA%20%E8%8F%AF%E7%81%AB%EF%BD%9C%E5%A4%A7%E4%B9%85%E4%BF%9D%E5%BA%97&ll=35.7007761,139.6971452"}},{"type":"Feature","geometry":{"type":"Point","coordinates":[139.7003818,35.696372]},"properties":{"name":"REIS KEBAB レイスケバブ新宿歌舞伎町店","name_ja":null,"category":"japaneat","source":"japaneat","note":"https://www.youtube.com/embed/JJ0huQ0Jix0","apple":"https://maps.apple.com/?q=REIS%20KEBAB%20%E3%83%AC%E3%82%A4%E3%82%B9%E3%82%B1%E3%83%90%E3%83%96%E6%96%B0%E5%AE%BF%E6%AD%8C%E8%88%9E%E4%BC%8E%E7%94%BA%E5%BA%97&ll=35.696372,139.7003818"}},{"type":"Feature","geometry":{"type":"Point","coordinates":[139.7017425,35.7015079]},"properties":{"name":"SOBOONG ソブン","name_ja":null,"category":"japaneat","source":"japaneat","note":"https://www.youtube.com/embed/ocN2Gzn1PvM","apple":"https://maps.apple.com/?q=SOBOONG%20%E3%82%BD%E3%83%96%E3%83%B3&ll=35.7015079,139.7017425"}},{"type":"Feature","geometry":{"type":"Point","coordinates":[139.6658387,35.7333818]},"properties":{"name":"Menmen","name_ja":null,"category":"japaneat","source":"japaneat","note":"https://www.youtube.com/embed/LxYpVk1mREM","apple":"https://maps.apple.com/?q=Menmen&ll=35.7333818,139.6658387"}},{"type":"Feature","geometry":{"type":"Point","coordinates":[139.7082596,35.648904]},"properties":{"name":"STEAM BREAD EBISU","name_ja":null,"category":"japaneat","source":"japaneat","note":"https://www.youtube.com/embed/pIr8yVdvnfs","apple":"https://maps.apple.com/?q=STEAM%20BREAD%20EBISU&ll=35.648904,139.7082596"}},{"type":"Feature","geometry":{"type":"Point","coordinates":[139.7097062,35.6515837]},"properties":{"name":"Tar-bou 80","name_ja":null,"category":"japaneat","source":"japaneat","note":"https://www.youtube.com/embed/FeqWLWyeK_c","apple":"https://maps.apple.com/?q=Tar-bou%2080&ll=35.6515837,139.7097062"}},{"type":"Feature","geometry":{"type":"Point","coordinates":[139.7097932,35.7329679]},"properties":{"name":"Tosakko Ramen","name_ja":null,"category":"japaneat","source":"japaneat","note":"https://www.youtube.com/embed/hIGCV0ZrGBc","apple":"https://maps.apple.com/?q=Tosakko%20Ramen&ll=35.7329679,139.7097932"}},{"type":"Feature","geometry":{"type":"Point","coordinates":[139.6719179,35.7375919]},"properties":{"name":"Lunch House","name_ja":null,"category":"japaneat","source":"japaneat","note":"https://www.youtube.com/embed/c9FCFrJgBcU","apple":"https://maps.apple.com/?q=Lunch%20House&ll=35.7375919,139.6719179"}},{"type":"Feature","geometry":{"type":"Point","coordinates":[139.703427,35.695056]},"properties":{"name":"Taketora","name_ja":null,"category":"japaneat","source":"japaneat","note":"https://www.youtube.com/embed/PKfJWkI0yHE","apple":"https://maps.apple.com/?q=Taketora&ll=35.695056,139.703427"}},{"type":"Feature","geometry":{"type":"Point","coordinates":[139.7044648,35.6610383]},"properties":{"name":"Moja in the House","name_ja":null,"category":"japaneat","source":"japaneat","note":"https://www.youtube.com/embed/gY1ip4I_92s","apple":"https://maps.apple.com/?q=Moja%20in%20the%20House&ll=35.6610383,139.7044648"}},{"type":"Feature","geometry":{"type":"Point","coordinates":[139.6660681,35.7333472]},"properties":{"name":"手造り弁当 蕗の薹","name_ja":null,"category":"japaneat","source":"japaneat","note":"https://www.youtube.com/embed/JKoJP1rBlyw","apple":"https://maps.apple.com/?q=%E6%89%8B%E9%80%A0%E3%82%8A%E5%BC%81%E5%BD%93%20%E8%95%97%E3%81%AE%E8%96%B9&ll=35.7333472,139.6660681"}},{"type":"Feature","geometry":{"type":"Point","coordinates":[139.782774,35.7132955]},"properties":{"name":"bibibi","name_ja":null,"category":"japaneat","source":"japaneat","note":"https://www.youtube.com/embed/XYHpy5KzePc","apple":"https://maps.apple.com/?q=bibibi&ll=35.7132955,139.782774"}},{"type":"Feature","geometry":{"type":"Point","coordinates":[139.7309295,35.7316861]},"properties":{"name":"Kitaotsuka Ramen","name_ja":null,"category":"japaneat","source":"japaneat","note":"https://www.youtube.com/embed/rL_SCbUADlA","apple":"https://maps.apple.com/?q=Kitaotsuka%20Ramen&ll=35.7316861,139.7309295"}},{"type":"Feature","geometry":{"type":"Point","coordinates":[139.7036455,35.6644945]},"properties":{"name":"PIZZANISTA! Tokyo","name_ja":null,"category":"japaneat","source":"japaneat","note":"https://www.youtube.com/embed/kofXAtA00Bs","apple":"https://maps.apple.com/?q=PIZZANISTA!%20Tokyo&ll=35.6644945,139.7036455"}},{"type":"Feature","geometry":{"type":"Point","coordinates":[139.6555928,35.736184]},"properties":{"name":"Heart Restaurant 安ざわ家 練馬店","name_ja":null,"category":"japaneat","source":"japaneat","note":"https://www.youtube.com/embed/yOrNcxTDYhE","apple":"https://maps.apple.com/?q=Heart%20Restaurant%20%E5%AE%89%E3%81%96%E3%82%8F%E5%AE%B6%20%E7%B7%B4%E9%A6%AC%E5%BA%97&ll=35.736184,139.6555928"}},{"type":"Feature","geometry":{"type":"Point","coordinates":[139.7314871,35.7315101]},"properties":{"name":"Green Lawson Kita-otsuka 1-chome","name_ja":null,"category":"japaneat","source":"japaneat","note":"https://www.youtube.com/embed/PSc-yE-mmkQ","apple":"https://maps.apple.com/?q=Green%20Lawson%20Kita-otsuka%201-chome&ll=35.7315101,139.7314871"}},{"type":"Feature","geometry":{"type":"Point","coordinates":[139.6979974,35.6612015]},"properties":{"name":"Choraku","name_ja":null,"category":"japaneat","source":"japaneat","note":"https://www.youtube.com/embed/eEkGdB5Eyp4","apple":"https://maps.apple.com/?q=Choraku&ll=35.6612015,139.6979974"}},{"type":"Feature","geometry":{"type":"Point","coordinates":[139.7813983,35.7136331]},"properties":{"name":"American Diner Andra","name_ja":null,"category":"japaneat","source":"japaneat","note":"https://www.youtube.com/embed/tYiYrVMSy5M","apple":"https://maps.apple.com/?q=American%20Diner%20Andra&ll=35.7136331,139.7813983"}},{"type":"Feature","geometry":{"type":"Point","coordinates":[139.7102118,35.6479071]},"properties":{"name":"Ebisu Bánh Mì Bakery","name_ja":null,"category":"japaneat","source":"japaneat","note":"https://www.youtube.com/embed/Hg14S2TI4F0","apple":"https://maps.apple.com/?q=Ebisu%20B%C3%A1nh%20M%C3%AC%20Bakery&ll=35.6479071,139.7102118"}},{"type":"Feature","geometry":{"type":"Point","coordinates":[139.6991857,35.6641251]},"properties":{"name":"Shiroichi","name_ja":null,"category":"japaneat","source":"japaneat","note":"https://www.youtube.com/embed/IszIN9n5MIU","apple":"https://maps.apple.com/?q=Shiroichi&ll=35.6641251,139.6991857"}},{"type":"Feature","geometry":{"type":"Point","coordinates":[139.7120438,35.6498733]},"properties":{"name":"Tsukumo Ramen Ebisu Honten","name_ja":null,"category":"japaneat","source":"japaneat","note":"https://www.youtube.com/embed/9-MdriwCqn0","apple":"https://maps.apple.com/?q=Tsukumo%20Ramen%20Ebisu%20Honten&ll=35.6498733,139.7120438"}},{"type":"Feature","geometry":{"type":"Point","coordinates":[139.7669086,35.7040091]},"properties":{"name":"Mijinco Coffee","name_ja":null,"category":"japaneat","source":"japaneat","note":"https://www.youtube.com/embed/6g1V7vesvV4","apple":"https://maps.apple.com/?q=Mijinco%20Coffee&ll=35.7040091,139.7669086"}},{"type":"Feature","geometry":{"type":"Point","coordinates":[139.770408,35.7028452]},"properties":{"name":"Soupless Tantanmen Piriri Akihabara Store","name_ja":null,"category":"japaneat","source":"japaneat","note":"https://www.youtube.com/embed/9FpLIzLLLJU","apple":"https://maps.apple.com/?q=Soupless%20Tantanmen%20Piriri%20Akihabara%20Store&ll=35.7028452,139.770408"}},{"type":"Feature","geometry":{"type":"Point","coordinates":[139.6823648,35.7071407]},"properties":{"name":"Jūban","name_ja":null,"category":"japaneat","source":"japaneat","note":"https://www.youtube.com/embed/XbsFpa2j_7g","apple":"https://maps.apple.com/?q=J%C5%ABban&ll=35.7071407,139.6823648"}},{"type":"Feature","geometry":{"type":"Point","coordinates":[139.7145399,35.689898]},"properties":{"name":"ajura翹璹欏 新宿御苑","name_ja":null,"category":"japaneat","source":"japaneat","note":"https://www.youtube.com/embed/ekMGJKogeOw","apple":"https://maps.apple.com/?q=ajura%E7%BF%B9%E7%92%B9%E6%AC%8F%20%E6%96%B0%E5%AE%BF%E5%BE%A1%E8%8B%91&ll=35.689898,139.7145399"}},{"type":"Feature","geometry":{"type":"Point","coordinates":[139.7304277,35.6636321]},"properties":{"name":"Taiyaki-ya Oyoge","name_ja":null,"category":"japaneat","source":"japaneat","note":"https://www.youtube.com/embed/ONoulJj6_W8","apple":"https://maps.apple.com/?q=Taiyaki-ya%20Oyoge&ll=35.6636321,139.7304277"}},{"type":"Feature","geometry":{"type":"Point","coordinates":[139.7065766,35.6945147]},"properties":{"name":"Kintarō","name_ja":null,"category":"japaneat","source":"japaneat","note":"https://www.youtube.com/embed/s6K-ZFLFW2I","apple":"https://maps.apple.com/?q=Kintar%C5%8D&ll=35.6945147,139.7065766"}},{"type":"Feature","geometry":{"type":"Point","coordinates":[139.7055626,35.7086741]},"properties":{"name":"立ちスパ アッパーカット","name_ja":null,"category":"japaneat","source":"japaneat","note":"https://www.youtube.com/embed/N9g42SglgqY","apple":"https://maps.apple.com/?q=%E7%AB%8B%E3%81%A1%E3%82%B9%E3%83%91%20%E3%82%A2%E3%83%83%E3%83%91%E3%83%BC%E3%82%AB%E3%83%83%E3%83%88&ll=35.7086741,139.7055626"}},{"type":"Feature","geometry":{"type":"Point","coordinates":[139.7094132,35.7332038]},"properties":{"name":"Yobocho (Ikebukuro Store)","name_ja":null,"category":"japaneat","source":"japaneat","note":"https://www.youtube.com/embed/6wfIpCnyAAU","apple":"https://maps.apple.com/?q=Yobocho%20(Ikebukuro%20Store)&ll=35.7332038,139.7094132"}},{"type":"Feature","geometry":{"type":"Point","coordinates":[139.7064149,35.6918352]},"properties":{"name":"Toriya Nanjakorya","name_ja":null,"category":"japaneat","source":"japaneat","note":"https://www.youtube.com/embed/Vo6-X5TfKz8","apple":"https://maps.apple.com/?q=Toriya%20Nanjakorya&ll=35.6918352,139.7064149"}},{"type":"Feature","geometry":{"type":"Point","coordinates":[139.6733447,35.7366916]},"properties":{"name":"Kitchen ABC Ekoda Branch","name_ja":null,"category":"japaneat","source":"japaneat","note":"https://www.youtube.com/embed/1N8Gurq77EY","apple":"https://maps.apple.com/?q=Kitchen%20ABC%20Ekoda%20Branch&ll=35.7366916,139.6733447"}},{"type":"Feature","geometry":{"type":"Point","coordinates":[139.7052092,35.6534974]},"properties":{"name":"PIZZA SLICE","name_ja":null,"category":"japaneat","source":"japaneat","note":"https://www.youtube.com/embed/PnpjthcA-KA","apple":"https://maps.apple.com/?q=PIZZA%20SLICE&ll=35.6534974,139.7052092"}},{"type":"Feature","geometry":{"type":"Point","coordinates":[139.7054692,35.6922389]},"properties":{"name":"IVO HOME'S PASTA Shinjuku Store","name_ja":null,"category":"japaneat","source":"japaneat","note":"https://www.youtube.com/embed/qRFan_BMgJw","apple":"https://maps.apple.com/?q=IVO%20HOME'S%20PASTA%20Shinjuku%20Store&ll=35.6922389,139.7054692"}},{"type":"Feature","geometry":{"type":"Point","coordinates":[139.7030439,35.6928645]},"properties":{"name":"Ikekara Shinjuku Kabukicho","name_ja":null,"category":"japaneat","source":"japaneat","note":"https://www.youtube.com/embed/g3xXWxRS0S8","apple":"https://maps.apple.com/?q=Ikekara%20Shinjuku%20Kabukicho&ll=35.6928645,139.7030439"}},{"type":"Feature","geometry":{"type":"Point","coordinates":[139.7688821,35.670883]},"properties":{"name":"Choushiya","name_ja":null,"category":"japaneat","source":"japaneat","note":"https://www.youtube.com/embed/Ld8Aj5VeqR0","apple":"https://maps.apple.com/?q=Choushiya&ll=35.670883,139.7688821"}},{"type":"Feature","geometry":{"type":"Point","coordinates":[139.6716674,35.739249]},"properties":{"name":"Kitchen otokono dinner onna lunch","name_ja":null,"category":"japaneat","source":"japaneat","note":"https://www.youtube.com/embed/Ry-40dGcnOU","apple":"https://maps.apple.com/?q=Kitchen%20otokono%20dinner%20onna%20lunch&ll=35.739249,139.6716674"}},{"type":"Feature","geometry":{"type":"Point","coordinates":[139.7380994,35.7345087]},"properties":{"name":"らーめん味っ子","name_ja":null,"category":"japaneat","source":"japaneat","note":"https://www.youtube.com/embed/ToiPW-uWYp0","apple":"https://maps.apple.com/?q=%E3%82%89%E3%83%BC%E3%82%81%E3%82%93%E5%91%B3%E3%81%A3%E5%AD%90&ll=35.7345087,139.7380994"}},{"type":"Feature","geometry":{"type":"Point","coordinates":[139.7380689,35.7344763]},"properties":{"name":"Fukunoya","name_ja":null,"category":"japaneat","source":"japaneat","note":"https://www.youtube.com/embed/KlXq37xyOy8","apple":"https://maps.apple.com/?q=Fukunoya&ll=35.7344763,139.7380689"}},{"type":"Feature","geometry":{"type":"Point","coordinates":[139.7103908,35.7115479]},"properties":{"name":"omotenashamoji","name_ja":null,"category":"japaneat","source":"japaneat","note":"https://www.youtube.com/embed/PoFgxYcuFCA","apple":"https://maps.apple.com/?q=omotenashamoji&ll=35.7115479,139.7103908"}},{"type":"Feature","geometry":{"type":"Point","coordinates":[139.7078541,35.7120138]},"properties":{"name":"homeys","name_ja":null,"category":"japaneat","source":"japaneat","note":"https://www.youtube.com/embed/roQnQb0u6kc","apple":"https://maps.apple.com/?q=homeys&ll=35.7120138,139.7078541"}},{"type":"Feature","geometry":{"type":"Point","coordinates":[139.7281881,35.7304902]},"properties":{"name":"洋食GOTOO","name_ja":null,"category":"japaneat","source":"japaneat","note":"https://www.youtube.com/embed/LOHQyeXnMsc","apple":"https://maps.apple.com/?q=%E6%B4%8B%E9%A3%9FGOTOO&ll=35.7304902,139.7281881"}},{"type":"Feature","geometry":{"type":"Point","coordinates":[139.7712945,35.6727584]},"properties":{"name":"Age.3 GINZA","name_ja":null,"category":"japaneat","source":"japaneat","note":"https://www.youtube.com/embed/xuPdpQP6plI","apple":"https://maps.apple.com/?q=Age.3%20GINZA&ll=35.6727584,139.7712945"}},{"type":"Feature","geometry":{"type":"Point","coordinates":[139.6881961,35.6950777]},"properties":{"name":"Moyan Curry Ribingu","name_ja":null,"category":"japaneat","source":"japaneat","note":"https://www.youtube.com/embed/S3TTS_wdxRM","apple":"https://maps.apple.com/?q=Moyan%20Curry%20Ribingu&ll=35.6950777,139.6881961"}},{"type":"Feature","geometry":{"type":"Point","coordinates":[139.7681901,35.6809837]},"properties":{"name":"Morinagano Okashina Okashiyasan","name_ja":null,"category":"japaneat","source":"japaneat","note":"https://www.youtube.com/embed/56vHK95WDos","apple":"https://maps.apple.com/?q=Morinagano%20Okashina%20Okashiyasan&ll=35.6809837,139.7681901"}},{"type":"Feature","geometry":{"type":"Point","coordinates":[139.7010095,35.6601401]},"properties":{"name":"Mom's Touch","name_ja":null,"category":"japaneat","source":"japaneat","note":"https://www.youtube.com/embed/kFQx2DMZEcU","apple":"https://maps.apple.com/?q=Mom's%20Touch&ll=35.6601401,139.7010095"}},{"type":"Feature","geometry":{"type":"Point","coordinates":[139.782829,35.5507529]},"properties":{"name":"RANGIRISOBA TO TENDON ICHINOI","name_ja":null,"category":"japaneat","source":"japaneat","note":"https://www.youtube.com/embed/2jEmCTWzOG8","apple":"https://maps.apple.com/?q=RANGIRISOBA%20TO%20TENDON%20ICHINOI&ll=35.5507529,139.782829"}},{"type":"Feature","geometry":{"type":"Point","coordinates":[139.6688275,35.6630259]},"properties":{"name":"Pannya","name_ja":null,"category":"japaneat","source":"japaneat","note":"https://www.youtube.com/embed/G9kiHDMVPHI","apple":"https://maps.apple.com/?q=Pannya&ll=35.6630259,139.6688275"}},{"type":"Feature","geometry":{"type":"Point","coordinates":[139.7063652,35.7310229]},"properties":{"name":"Mitoya Lunchhouse","name_ja":null,"category":"japaneat","source":"japaneat","note":"https://www.youtube.com/embed/l-_cMklaqQQ","apple":"https://maps.apple.com/?q=Mitoya%20Lunchhouse&ll=35.7310229,139.7063652"}},{"type":"Feature","geometry":{"type":"Point","coordinates":[139.6627485,35.6589542]},"properties":{"name":"Shiro-Hige’s Cream Puff Factory","name_ja":null,"category":"japaneat","source":"japaneat","note":"https://www.youtube.com/embed/-v3epOcP-j8","apple":"https://maps.apple.com/?q=Shiro-Hige%E2%80%99s%20Cream%20Puff%20Factory&ll=35.6589542,139.6627485"}},{"type":"Feature","geometry":{"type":"Point","coordinates":[139.7338172,35.7372587]},"properties":{"name":"Fight Gyoza","name_ja":null,"category":"japaneat","source":"japaneat","note":"https://www.youtube.com/embed/e6MtzvfO3n8","apple":"https://maps.apple.com/?q=Fight%20Gyoza&ll=35.7372587,139.7338172"}},{"type":"Feature","geometry":{"type":"Point","coordinates":[139.7050824,35.6665054]},"properties":{"name":"Menchirashi","name_ja":null,"category":"japaneat","source":"japaneat","note":"https://www.youtube.com/embed/cLD4gZmBCMY","apple":"https://maps.apple.com/?q=Menchirashi&ll=35.6665054,139.7050824"}},{"type":"Feature","geometry":{"type":"Point","coordinates":[139.7023757,35.6901676]},"properties":{"name":"Asian Dining YUMMY","name_ja":null,"category":"japaneat","source":"japaneat","note":"https://www.youtube.com/embed/gyGDKohA_kw","apple":"https://maps.apple.com/?q=Asian%20Dining%20YUMMY&ll=35.6901676,139.7023757"}},{"type":"Feature","geometry":{"type":"Point","coordinates":[139.7293399,35.7320107]},"properties":{"name":"Ramen Kousagi","name_ja":null,"category":"japaneat","source":"japaneat","note":"https://www.youtube.com/embed/-3fYIhKBbwE","apple":"https://maps.apple.com/?q=Ramen%20Kousagi&ll=35.7320107,139.7293399"}},{"type":"Feature","geometry":{"type":"Point","coordinates":[139.7394787,35.7347806]},"properties":{"name":"Olive","name_ja":null,"category":"japaneat","source":"japaneat","note":"https://www.youtube.com/embed/1oSwWx4LAiI","apple":"https://maps.apple.com/?q=Olive&ll=35.7347806,139.7394787"}},{"type":"Feature","geometry":{"type":"Point","coordinates":[139.7124831,35.7309142]},"properties":{"name":"HELLO!DONUTS 池袋パルコ店","name_ja":null,"category":"japaneat","source":"japaneat","note":"https://www.youtube.com/embed/ziBU6JgYqmw","apple":"https://maps.apple.com/?q=HELLO!DONUTS%20%E6%B1%A0%E8%A2%8B%E3%83%91%E3%83%AB%E3%82%B3%E5%BA%97&ll=35.7309142,139.7124831"}},{"type":"Feature","geometry":{"type":"Point","coordinates":[139.6997519,35.6826878]},"properties":{"name":"ICON","name_ja":null,"category":"japaneat","source":"japaneat","note":"https://www.youtube.com/embed/AhOQ8GkcNtY","apple":"https://maps.apple.com/?q=ICON&ll=35.6826878,139.6997519"}},{"type":"Feature","geometry":{"type":"Point","coordinates":[139.7030788,35.7227208]},"properties":{"name":"Marucho","name_ja":null,"category":"japaneat","source":"japaneat","note":"https://www.youtube.com/embed/Cg-N3htJZSY","apple":"https://maps.apple.com/?q=Marucho&ll=35.7227208,139.7030788"}},{"type":"Feature","geometry":{"type":"Point","coordinates":[139.7348154,35.6072203]},"properties":{"name":"Gyuhachi","name_ja":null,"category":"japaneat","source":"japaneat","note":"https://www.youtube.com/embed/UUeKu_ng-9k","apple":"https://maps.apple.com/?q=Gyuhachi&ll=35.6072203,139.7348154"}},{"type":"Feature","geometry":{"type":"Point","coordinates":[139.7661567,35.727652]},"properties":{"name":"Yanaka Shippoya","name_ja":null,"category":"japaneat","source":"japaneat","note":"https://www.youtube.com/embed/gyhe3_xekZk","apple":"https://maps.apple.com/?q=Yanaka%20Shippoya&ll=35.727652,139.7661567"}},{"type":"Feature","geometry":{"type":"Point","coordinates":[139.7717641,35.7013009]},"properties":{"name":"Carl's Jr. Akihabara Chuo-St. shop","name_ja":null,"category":"japaneat","source":"japaneat","note":"https://www.youtube.com/embed/eJPyTtUnZyU","apple":"https://maps.apple.com/?q=Carl's%20Jr.%20Akihabara%20Chuo-St.%20shop&ll=35.7013009,139.7717641"}},{"type":"Feature","geometry":{"type":"Point","coordinates":[139.7070381,35.71381]},"properties":{"name":"1/f Yuragi","name_ja":null,"category":"japaneat","source":"japaneat","note":"https://www.youtube.com/embed/O0wWjsFPrcs","apple":"https://maps.apple.com/?q=1%2Ff%20Yuragi&ll=35.71381,139.7070381"}},{"type":"Feature","geometry":{"type":"Point","coordinates":[139.7037779,35.6700617]},"properties":{"name":"Spontini Cascade Harajuku","name_ja":null,"category":"japaneat","source":"japaneat","note":"https://www.youtube.com/embed/6PGeVywGMkc","apple":"https://maps.apple.com/?q=Spontini%20Cascade%20Harajuku&ll=35.6700617,139.7037779"}},{"type":"Feature","geometry":{"type":"Point","coordinates":[139.7052702,35.7119338]},"properties":{"name":"Luna Cafe and Laundry","name_ja":null,"category":"japaneat","source":"japaneat","note":"https://www.youtube.com/embed/YEozSXuaodo","apple":"https://maps.apple.com/?q=Luna%20Cafe%20and%20Laundry&ll=35.7119338,139.7052702"}},{"type":"Feature","geometry":{"type":"Point","coordinates":[139.7724063,35.6936985]},"properties":{"name":"Karashibi Miso Ramen Kikanbō Kanda Honten","name_ja":null,"category":"japaneat","source":"japaneat","note":"https://www.youtube.com/embed/yihHmUI_w70","apple":"https://maps.apple.com/?q=Karashibi%20Miso%20Ramen%20Kikanb%C5%8D%20Kanda%20Honten&ll=35.6936985,139.7724063"}},{"type":"Feature","geometry":{"type":"Point","coordinates":[139.6934934,35.6557027]},"properties":{"name":"Usagi","name_ja":null,"category":"japaneat","source":"japaneat","note":"https://www.youtube.com/embed/wlO9YH0HQs0","apple":"https://maps.apple.com/?q=Usagi&ll=35.6557027,139.6934934"}},{"type":"Feature","geometry":{"type":"Point","coordinates":[139.7360651,35.7539395]},"properties":{"name":"Rocco's California Style Tacos ラッコズカリフォルニアスタイルタコス","name_ja":null,"category":"japaneat","source":"japaneat","note":"https://www.youtube.com/embed/fUbMXoaRv8c","apple":"https://maps.apple.com/?q=Rocco's%20California%20Style%20Tacos%20%E3%83%A9%E3%83%83%E3%82%B3%E3%82%BA%E3%82%AB%E3%83%AA%E3%83%95%E3%82%A9%E3%83%AB%E3%83%8B%E3%82%A2%E3%82%B9%E3%82%BF%E3%82%A4%E3%83%AB%E3%82%BF%E3%82%B3%E3%82%B9&ll=35.7539395,139.7360651"}},{"type":"Feature","geometry":{"type":"Point","coordinates":[139.7050536,35.6664126]},"properties":{"name":"The Little BAKERY Tokyo","name_ja":null,"category":"japaneat","source":"japaneat","note":"https://www.youtube.com/embed/3miTh-ZZGLQ","apple":"https://maps.apple.com/?q=The%20Little%20BAKERY%20Tokyo&ll=35.6664126,139.7050536"}},{"type":"Feature","geometry":{"type":"Point","coordinates":[139.6954878,35.6561261]},"properties":{"name":"Oreryu Shio-ramen Shibuya-main store","name_ja":null,"category":"japaneat","source":"japaneat","note":"https://www.youtube.com/embed/XkehQBQqVQE","apple":"https://maps.apple.com/?q=Oreryu%20Shio-ramen%20Shibuya-main%20store&ll=35.6561261,139.6954878"}},{"type":"Feature","geometry":{"type":"Point","coordinates":[139.7356431,35.7539678]},"properties":{"name":"ROCCO'S NEW YORK STYLE PIZZA","name_ja":null,"category":"japaneat","source":"japaneat","note":"https://www.youtube.com/embed/r9S4epBamBU","apple":"https://maps.apple.com/?q=ROCCO'S%20NEW%20YORK%20STYLE%20PIZZA&ll=35.7539678,139.7356431"}},{"type":"Feature","geometry":{"type":"Point","coordinates":[139.6994937,35.6605352]},"properties":{"name":"Nihon Aburato Shibuya General headquarters","name_ja":null,"category":"japaneat","source":"japaneat","note":"https://www.youtube.com/embed/AhQRsnqzhaM","apple":"https://maps.apple.com/?q=Nihon%20Aburato%20Shibuya%20General%20headquarters&ll=35.6605352,139.6994937"}},{"type":"Feature","geometry":{"type":"Point","coordinates":[139.7054175,35.6690281]},"properties":{"name":"ovgo Baker Meiji St.","name_ja":null,"category":"japaneat","source":"japaneat","note":"https://www.youtube.com/embed/EyALAFW5KDo","apple":"https://maps.apple.com/?q=ovgo%20Baker%20Meiji%20St.&ll=35.6690281,139.7054175"}},{"type":"Feature","geometry":{"type":"Point","coordinates":[139.7065645,35.66844]},"properties":{"name":"BPC donuts 表参道店","name_ja":null,"category":"japaneat","source":"japaneat","note":"https://www.youtube.com/embed/VYo-Ore_9j8","apple":"https://maps.apple.com/?q=BPC%20donuts%20%E8%A1%A8%E5%8F%82%E9%81%93%E5%BA%97&ll=35.66844,139.7065645"}},{"type":"Feature","geometry":{"type":"Point","coordinates":[139.7748169,35.6246222]},"properties":{"name":"Carl’s Jr","name_ja":null,"category":"japaneat","source":"japaneat","note":"https://www.youtube.com/embed/MN_feDAAIOY","apple":"https://maps.apple.com/?q=Carl%E2%80%99s%20Jr&ll=35.6246222,139.7748169"}},{"type":"Feature","geometry":{"type":"Point","coordinates":[139.7030439,35.6928645]},"properties":{"name":"Cookie & Cream Latte Kulua 新宿店","name_ja":null,"category":"japaneat","source":"japaneat","note":"https://www.youtube.com/embed/-k6_XYrKses","apple":"https://maps.apple.com/?q=Cookie%20%26%20Cream%20Latte%20Kulua%20%E6%96%B0%E5%AE%BF%E5%BA%97&ll=35.6928645,139.7030439"}},{"type":"Feature","geometry":{"type":"Point","coordinates":[139.7073424,35.7131125]},"properties":{"name":"Hyōri Takadanobaba","name_ja":null,"category":"japaneat","source":"japaneat","note":"https://www.youtube.com/embed/ywy5MzC5NA8","apple":"https://maps.apple.com/?q=Hy%C5%8Dri%20Takadanobaba&ll=35.7131125,139.7073424"}},{"type":"Feature","geometry":{"type":"Point","coordinates":[139.7399686,35.732633]},"properties":{"name":"Hakusyaku Sugamo branch","name_ja":null,"category":"japaneat","source":"japaneat","note":"https://www.youtube.com/embed/kn2Scv40YFw","apple":"https://maps.apple.com/?q=Hakusyaku%20Sugamo%20branch&ll=35.732633,139.7399686"}},{"type":"Feature","geometry":{"type":"Point","coordinates":[139.789708,35.7091671]},"properties":{"name":"Yogashi Lemon Pie","name_ja":null,"category":"japaneat","source":"japaneat","note":"https://www.youtube.com/embed/WjMww9ZzHOY","apple":"https://maps.apple.com/?q=Yogashi%20Lemon%20Pie&ll=35.7091671,139.789708"}},{"type":"Feature","geometry":{"type":"Point","coordinates":[139.7038616,35.687351]},"properties":{"name":"Tsukemen Gonokami Seisakusho Shinjuku","name_ja":null,"category":"japaneat","source":"japaneat","note":"https://www.youtube.com/embed/QyQW-kcx3aY","apple":"https://maps.apple.com/?q=Tsukemen%20Gonokami%20Seisakusho%20Shinjuku&ll=35.687351,139.7038616"}},{"type":"Feature","geometry":{"type":"Point","coordinates":[139.7742986,35.7051986]},"properties":{"name":"Egg Baby Cafe","name_ja":null,"category":"japaneat","source":"japaneat","note":"https://www.youtube.com/embed/mOPzmfm7i_Q","apple":"https://maps.apple.com/?q=Egg%20Baby%20Cafe&ll=35.7051986,139.7742986"}},{"type":"Feature","geometry":{"type":"Point","coordinates":[139.7945597,35.7141638]},"properties":{"name":"Mochinyan-yaki(Chewy Cat-shaped Pancake)","name_ja":null,"category":"japaneat","source":"japaneat","note":"https://www.youtube.com/embed/_o1X4tW5G2E","apple":"https://maps.apple.com/?q=Mochinyan-yaki(Chewy%20Cat-shaped%20Pancake)&ll=35.7141638,139.7945597"}},{"type":"Feature","geometry":{"type":"Point","coordinates":[139.6733921,35.7376961]},"properties":{"name":"Yokohama Tonkotsu Soy Sauce Ramen YOLO","name_ja":null,"category":"japaneat","source":"japaneat","note":"https://www.youtube.com/embed/iVbIbmMBO7s","apple":"https://maps.apple.com/?q=Yokohama%20Tonkotsu%20Soy%20Sauce%20Ramen%20YOLO&ll=35.7376961,139.6733921"}},{"type":"Feature","geometry":{"type":"Point","coordinates":[139.7899743,35.7091341]},"properties":{"name":"Maple Pizza","name_ja":null,"category":"japaneat","source":"japaneat","note":"https://www.youtube.com/embed/S_0GX5bPK9w","apple":"https://maps.apple.com/?q=Maple%20Pizza&ll=35.7091341,139.7899743"}},{"type":"Feature","geometry":{"type":"Point","coordinates":[139.6998971,35.6886615]},"properties":{"name":"eggslut Shinjuku Southern Terrace","name_ja":null,"category":"japaneat","source":"japaneat","note":"https://www.youtube.com/embed/hBYpGHnrbJo","apple":"https://maps.apple.com/?q=eggslut%20Shinjuku%20Southern%20Terrace&ll=35.6886615,139.6998971"}},{"type":"Feature","geometry":{"type":"Point","coordinates":[139.6980034,35.6954772]},"properties":{"name":"Ebisoba Ichigen Shinjuku branch","name_ja":null,"category":"japaneat","source":"japaneat","note":"https://www.youtube.com/embed/MbV805UtKOE","apple":"https://maps.apple.com/?q=Ebisoba%20Ichigen%20Shinjuku%20branch&ll=35.6954772,139.6980034"}},{"type":"Feature","geometry":{"type":"Point","coordinates":[139.7348861,35.6561302]},"properties":{"name":"Soufflé &","name_ja":null,"category":"japaneat","source":"japaneat","note":"https://www.youtube.com/embed/3zRFYVT2DOg","apple":"https://maps.apple.com/?q=Souffl%C3%A9%20%26&ll=35.6561302,139.7348861"}},{"type":"Feature","geometry":{"type":"Point","coordinates":[139.734573,35.655364]},"properties":{"name":"Soul Food House","name_ja":null,"category":"japaneat","source":"japaneat","note":"https://www.youtube.com/embed/CSgUXrhrRSc","apple":"https://maps.apple.com/?q=Soul%20Food%20House&ll=35.655364,139.734573"}},{"type":"Feature","geometry":{"type":"Point","coordinates":[139.716489,35.7290883]},"properties":{"name":"yellow 池袋","name_ja":null,"category":"japaneat","source":"japaneat","note":"https://www.youtube.com/embed/D3FEIUMP_C8","apple":"https://maps.apple.com/?q=yellow%20%E6%B1%A0%E8%A2%8B&ll=35.7290883,139.716489"}},{"type":"Feature","geometry":{"type":"Point","coordinates":[139.7036978,35.6919452]},"properties":{"name":"Oroji Tonkatsu","name_ja":null,"category":"japaneat","source":"japaneat","note":"https://www.youtube.com/embed/piqHFKshTZo","apple":"https://maps.apple.com/?q=Oroji%20Tonkatsu&ll=35.6919452,139.7036978"}},{"type":"Feature","geometry":{"type":"Point","coordinates":[139.6927057,35.7274435]},"properties":{"name":"Kitchen Sai","name_ja":null,"category":"japaneat","source":"japaneat","note":"https://www.youtube.com/embed/YgY7QAavR08","apple":"https://maps.apple.com/?q=Kitchen%20Sai&ll=35.7274435,139.6927057"}},{"type":"Feature","geometry":{"type":"Point","coordinates":[139.7690917,35.679249]},"properties":{"name":"Potama Tokyo Midtown Yaesu","name_ja":null,"category":"japaneat","source":"japaneat","note":"https://www.youtube.com/embed/trpm9_hD3Sc","apple":"https://maps.apple.com/?q=Potama%20Tokyo%20Midtown%20Yaesu&ll=35.679249,139.7690917"}},{"type":"Feature","geometry":{"type":"Point","coordinates":[139.6771499,35.7320533]},"properties":{"name":"Rabbit-ken","name_ja":null,"category":"japaneat","source":"japaneat","note":"https://www.youtube.com/embed/iqnzacNYsaE","apple":"https://maps.apple.com/?q=Rabbit-ken&ll=35.7320533,139.6771499"}},{"type":"Feature","geometry":{"type":"Point","coordinates":[139.7689311,35.6794084]},"properties":{"name":"FRIJOLES Tokyo Midtown Yaesu Store","name_ja":null,"category":"japaneat","source":"japaneat","note":"https://www.youtube.com/embed/DsmffEADfFs","apple":"https://maps.apple.com/?q=FRIJOLES%20Tokyo%20Midtown%20Yaesu%20Store&ll=35.6794084,139.7689311"}},{"type":"Feature","geometry":{"type":"Point","coordinates":[139.7416911,35.6824768]},"properties":{"name":"Coffee Shop First Kojimachi","name_ja":null,"category":"japaneat","source":"japaneat","note":"https://www.youtube.com/embed/gBCaoOGBglw","apple":"https://maps.apple.com/?q=Coffee%20Shop%20First%20Kojimachi&ll=35.6824768,139.7416911"}},{"type":"Feature","geometry":{"type":"Point","coordinates":[139.7071235,35.7288379]},"properties":{"name":"Lan Lan","name_ja":null,"category":"japaneat","source":"japaneat","note":"https://www.youtube.com/embed/mesmBYoP4HI","apple":"https://maps.apple.com/?q=Lan%20Lan&ll=35.7288379,139.7071235"}},{"type":"Feature","geometry":{"type":"Point","coordinates":[139.7416759,35.6823918]},"properties":{"name":"SOBA STAND Sobausa","name_ja":null,"category":"japaneat","source":"japaneat","note":"https://www.youtube.com/embed/xcfYTag0CaA","apple":"https://maps.apple.com/?q=SOBA%20STAND%20Sobausa&ll=35.6823918,139.7416759"}},{"type":"Feature","geometry":{"type":"Point","coordinates":[139.6670048,35.713171]},"properties":{"name":"VATANIM","name_ja":null,"category":"japaneat","source":"japaneat","note":"https://www.youtube.com/embed/-p5VsXx63G4","apple":"https://maps.apple.com/?q=VATANIM&ll=35.713171,139.6670048"}},{"type":"Feature","geometry":{"type":"Point","coordinates":[139.669451,35.662498]},"properties":{"name":"Mintei","name_ja":null,"category":"japaneat","source":"japaneat","note":"https://www.youtube.com/embed/ZUsahPVi4Xc","apple":"https://maps.apple.com/?q=Mintei&ll=35.662498,139.669451"}},{"type":"Feature","geometry":{"type":"Point","coordinates":[139.7815438,35.6833503]},"properties":{"name":"人形町 鶏白湯 ラーメン RYUS Noodle Bar Tokyo Craft 日本橋 蛎殻町 水天宮前 茅場町","name_ja":null,"category":"japaneat","source":"japaneat","note":"https://www.youtube.com/embed/6Czz5DEm4dE","apple":"https://maps.apple.com/?q=%E4%BA%BA%E5%BD%A2%E7%94%BA%20%E9%B6%8F%E7%99%BD%E6%B9%AF%20%E3%83%A9%E3%83%BC%E3%83%A1%E3%83%B3%20RYUS%20Noodle%20Bar%20Tokyo%20Craft%20%E6%97%A5%E6%9C%AC%E6%A9%8B%20%E8%9B%8E%E6%AE%BB%E7%94%BA%20%E6%B0%B4%E5%A4%A9%E5%AE%AE%E5%89%8D%20%E8%8C%85%E5%A0%B4%E7%94%BA&ll=35.6833503,139.7815438"}},{"type":"Feature","geometry":{"type":"Point","coordinates":[139.8114516,35.710134]},"properties":{"name":"Quil Fait Bon Tokyo Skytree Town, Solamachi Branch","name_ja":null,"category":"japaneat","source":"japaneat","note":"https://www.youtube.com/embed/kUJVBzyQ31g","apple":"https://maps.apple.com/?q=Quil%20Fait%20Bon%20Tokyo%20Skytree%20Town%2C%20Solamachi%20Branch&ll=35.710134,139.8114516"}},{"type":"Feature","geometry":{"type":"Point","coordinates":[139.7010095,35.6601401]},"properties":{"name":"Mom's Touch","name_ja":null,"category":"japaneat","source":"japaneat","note":"https://www.youtube.com/embed/hT9pd23JOX0","apple":"https://maps.apple.com/?q=Mom's%20Touch&ll=35.6601401,139.7010095"}},{"type":"Feature","geometry":{"type":"Point","coordinates":[139.6965652,35.6589719]},"properties":{"name":"Murugi","name_ja":null,"category":"japaneat","source":"japaneat","note":"https://www.youtube.com/embed/WmSWbDC69zw","apple":"https://maps.apple.com/?q=Murugi&ll=35.6589719,139.6965652"}},{"type":"Feature","geometry":{"type":"Point","coordinates":[139.7041376,35.6656363]},"properties":{"name":"RUMBLE CRUMBLE 渋谷本店","name_ja":null,"category":"japaneat","source":"japaneat","note":"https://www.youtube.com/embed/u1nEaeG3vXc","apple":"https://maps.apple.com/?q=RUMBLE%20CRUMBLE%20%E6%B8%8B%E8%B0%B7%E6%9C%AC%E5%BA%97&ll=35.6656363,139.7041376"}},{"type":"Feature","geometry":{"type":"Point","coordinates":[139.7160101,35.7264997]},"properties":{"name":"Kimini, ageru.","name_ja":null,"category":"japaneat","source":"japaneat","note":"https://www.youtube.com/embed/XMiHWeDUtPI","apple":"https://maps.apple.com/?q=Kimini%2C%20ageru.&ll=35.7264997,139.7160101"}},{"type":"Feature","geometry":{"type":"Point","coordinates":[139.6858232,35.7273392]},"properties":{"name":"中華料理 松月","name_ja":null,"category":"japaneat","source":"japaneat","note":"https://www.youtube.com/embed/2zYGIU9PXaU","apple":"https://maps.apple.com/?q=%E4%B8%AD%E8%8F%AF%E6%96%99%E7%90%86%20%E6%9D%BE%E6%9C%88&ll=35.7273392,139.6858232"}},{"type":"Feature","geometry":{"type":"Point","coordinates":[139.67071,35.7401931]},"properties":{"name":"Chikara-tei","name_ja":null,"category":"japaneat","source":"japaneat","note":"https://www.youtube.com/embed/bTfJVjjWnvI","apple":"https://maps.apple.com/?q=Chikara-tei&ll=35.7401931,139.67071"}},{"type":"Feature","geometry":{"type":"Point","coordinates":[139.736214,35.655243]},"properties":{"name":"Tori soba Ichikoro 156","name_ja":null,"category":"japaneat","source":"japaneat","note":"https://www.youtube.com/embed/VHwZ2i6iL-U","apple":"https://maps.apple.com/?q=Tori%20soba%20Ichikoro%20156&ll=35.655243,139.736214"}},{"type":"Feature","geometry":{"type":"Point","coordinates":[139.7343992,35.6533448]},"properties":{"name":"NEW NEW YORK CLUB BAGEL & SANDWICH SHOP","name_ja":null,"category":"japaneat","source":"japaneat","note":"https://www.youtube.com/embed/zH1yvF6RU2Q","apple":"https://maps.apple.com/?q=NEW%20NEW%20YORK%20CLUB%20BAGEL%20%26%20SANDWICH%20SHOP&ll=35.6533448,139.7343992"}},{"type":"Feature","geometry":{"type":"Point","coordinates":[139.6286774,35.7355427]},"properties":{"name":"麺処盛盛","name_ja":null,"category":"japaneat","source":"japaneat","note":"https://www.youtube.com/embed/D749e3eMrKE","apple":"https://maps.apple.com/?q=%E9%BA%BA%E5%87%A6%E7%9B%9B%E7%9B%9B&ll=35.7355427,139.6286774"}},{"type":"Feature","geometry":{"type":"Point","coordinates":[139.7719633,35.701483]},"properties":{"name":"VAULT COFFEE","name_ja":null,"category":"japaneat","source":"japaneat","note":"https://www.youtube.com/embed/pzDRCzV90SU","apple":"https://maps.apple.com/?q=VAULT%20COFFEE&ll=35.701483,139.7719633"}},{"type":"Feature","geometry":{"type":"Point","coordinates":[139.5864041,35.7490248]},"properties":{"name":"Akkeshi","name_ja":null,"category":"japaneat","source":"japaneat","note":"https://www.youtube.com/embed/WVpEBGt88tw","apple":"https://maps.apple.com/?q=Akkeshi&ll=35.7490248,139.5864041"}},{"type":"Feature","geometry":{"type":"Point","coordinates":[139.7082043,35.7119486]},"properties":{"name":"Chinese Cuisine Shuuei","name_ja":null,"category":"japaneat","source":"japaneat","note":"https://www.youtube.com/embed/ynFh9irX0QQ","apple":"https://maps.apple.com/?q=Chinese%20Cuisine%20Shuuei&ll=35.7119486,139.7082043"}},{"type":"Feature","geometry":{"type":"Point","coordinates":[139.6968297,35.6603586]},"properties":{"name":"Li'l Woody's Shibuya","name_ja":null,"category":"japaneat","source":"japaneat","note":"https://www.youtube.com/embed/uSQXUnRP1Cw","apple":"https://maps.apple.com/?q=Li'l%20Woody's%20Shibuya&ll=35.6603586,139.6968297"}},{"type":"Feature","geometry":{"type":"Point","coordinates":[139.6904494,35.7277489]},"properties":{"name":"Sakae Coffee","name_ja":null,"category":"japaneat","source":"japaneat","note":"https://www.youtube.com/embed/wuq-ltGQvG0","apple":"https://maps.apple.com/?q=Sakae%20Coffee&ll=35.7277489,139.6904494"}},{"type":"Feature","geometry":{"type":"Point","coordinates":[139.7748293,35.7105694]},"properties":{"name":"Mori no Chaya","name_ja":null,"category":"japaneat","source":"japaneat","note":"https://www.youtube.com/embed/jonhAZB7h30","apple":"https://maps.apple.com/?q=Mori%20no%20Chaya&ll=35.7105694,139.7748293"}},{"type":"Feature","geometry":{"type":"Point","coordinates":[139.6845813,35.7293093]},"properties":{"name":"Naganoya","name_ja":null,"category":"japaneat","source":"japaneat","note":"https://www.youtube.com/embed/pCHCPeTnrhM","apple":"https://maps.apple.com/?q=Naganoya&ll=35.7293093,139.6845813"}},{"type":"Feature","geometry":{"type":"Point","coordinates":[139.6968457,35.6588667]},"properties":{"name":"Torikatsu Chicken","name_ja":null,"category":"japaneat","source":"japaneat","note":"https://www.youtube.com/embed/AozwG_-xo_Y","apple":"https://maps.apple.com/?q=Torikatsu%20Chicken&ll=35.6588667,139.6968457"}},{"type":"Feature","geometry":{"type":"Point","coordinates":[139.7109031,35.6881356]},"properties":{"name":"Cois Espresso Club Shinjuku Gyoemmae","name_ja":null,"category":"japaneat","source":"japaneat","note":"https://www.youtube.com/embed/7pV73eurzPI","apple":"https://maps.apple.com/?q=Cois%20Espresso%20Club%20Shinjuku%20Gyoemmae&ll=35.6881356,139.7109031"}},{"type":"Feature","geometry":{"type":"Point","coordinates":[139.7110869,35.6900121]},"properties":{"name":"Ramen Afro Beats","name_ja":null,"category":"japaneat","source":"japaneat","note":"https://www.youtube.com/embed/969rEVxbwMs","apple":"https://maps.apple.com/?q=Ramen%20Afro%20Beats&ll=35.6900121,139.7110869"}},{"type":"Feature","geometry":{"type":"Point","coordinates":[139.6556439,35.7384019]},"properties":{"name":"ヴィーノ エ ラーボ","name_ja":null,"category":"japaneat","source":"japaneat","note":"https://www.youtube.com/embed/lzfrwkMIsUE","apple":"https://maps.apple.com/?q=%E3%83%B4%E3%82%A3%E3%83%BC%E3%83%8E%20%E3%82%A8%20%E3%83%A9%E3%83%BC%E3%83%9C&ll=35.7384019,139.6556439"}},{"type":"Feature","geometry":{"type":"Point","coordinates":[139.6748965,35.7310315]},"properties":{"name":"Aniki’n-chi","name_ja":null,"category":"japaneat","source":"japaneat","note":"https://www.youtube.com/embed/piUORR1U93w","apple":"https://maps.apple.com/?q=Aniki%E2%80%99n-chi&ll=35.7310315,139.6748965"}},{"type":"Feature","geometry":{"type":"Point","coordinates":[139.6862171,35.7394005]},"properties":{"name":"中華 八千代","name_ja":null,"category":"japaneat","source":"japaneat","note":"https://www.youtube.com/embed/IBIRIbvezvg","apple":"https://maps.apple.com/?q=%E4%B8%AD%E8%8F%AF%20%E5%85%AB%E5%8D%83%E4%BB%A3&ll=35.7394005,139.6862171"}},{"type":"Feature","geometry":{"type":"Point","coordinates":[139.6976812,35.6990007]},"properties":{"name":"Beef tendon curry little curry house","name_ja":null,"category":"japaneat","source":"japaneat","note":"https://www.youtube.com/embed/t56L1b-W3R8","apple":"https://maps.apple.com/?q=Beef%20tendon%20curry%20little%20curry%20house&ll=35.6990007,139.6976812"}},{"type":"Feature","geometry":{"type":"Point","coordinates":[139.6686688,35.6631754]},"properties":{"name":"yuzuki shimokitazawa","name_ja":null,"category":"japaneat","source":"japaneat","note":"https://www.youtube.com/embed/AVglO4RoPYY","apple":"https://maps.apple.com/?q=yuzuki%20shimokitazawa&ll=35.6631754,139.6686688"}},{"type":"Feature","geometry":{"type":"Point","coordinates":[139.7133707,35.7254472]},"properties":{"name":"Tempura restaurant Tenzan","name_ja":null,"category":"japaneat","source":"japaneat","note":"https://www.youtube.com/embed/MXBLMBXztko","apple":"https://maps.apple.com/?q=Tempura%20restaurant%20Tenzan&ll=35.7254472,139.7133707"}},{"type":"Feature","geometry":{"type":"Point","coordinates":[139.7156138,35.7322426]},"properties":{"name":"Egg Tokyo","name_ja":null,"category":"japaneat","source":"japaneat","note":"https://www.youtube.com/embed/pADEcNd4_Go","apple":"https://maps.apple.com/?q=Egg%20Tokyo&ll=35.7322426,139.7156138"}},{"type":"Feature","geometry":{"type":"Point","coordinates":[139.7081254,35.7340822]},"properties":{"name":"Senjou Gyoza","name_ja":null,"category":"japaneat","source":"japaneat","note":"https://www.youtube.com/embed/v_K4RL83R8w","apple":"https://maps.apple.com/?q=Senjou%20Gyoza&ll=35.7340822,139.7081254"}},{"type":"Feature","geometry":{"type":"Point","coordinates":[139.6988685,35.6898293]},"properties":{"name":"陳麻婆豆腐 麺飯館 新宿京王モール店","name_ja":null,"category":"japaneat","source":"japaneat","note":"https://www.youtube.com/embed/s_w9JytTLNs","apple":"https://maps.apple.com/?q=%E9%99%B3%E9%BA%BB%E5%A9%86%E8%B1%86%E8%85%90%20%E9%BA%BA%E9%A3%AF%E9%A4%A8%20%E6%96%B0%E5%AE%BF%E4%BA%AC%E7%8E%8B%E3%83%A2%E3%83%BC%E3%83%AB%E5%BA%97&ll=35.6898293,139.6988685"}},{"type":"Feature","geometry":{"type":"Point","coordinates":[139.3609906,35.5677076]},"properties":{"name":"Ippatsu Ramen Sagamihara","name_ja":null,"category":"japaneat","source":"japaneat","note":"https://www.youtube.com/embed/UL0xrQBOyq4","apple":"https://maps.apple.com/?q=Ippatsu%20Ramen%20Sagamihara&ll=35.5677076,139.3609906"}},{"type":"Feature","geometry":{"type":"Point","coordinates":[139.71039,35.7327003]},"properties":{"name":"CALL A CHICKEN - Ikebukuro","name_ja":null,"category":"japaneat","source":"japaneat","note":"https://www.youtube.com/embed/L-CGxeT1y-s","apple":"https://maps.apple.com/?q=CALL%20A%20CHICKEN%20-%20Ikebukuro&ll=35.7327003,139.71039"}},{"type":"Feature","geometry":{"type":"Point","coordinates":[139.687903,35.715359]},"properties":{"name":"Yakata","name_ja":null,"category":"japaneat","source":"japaneat","note":"https://www.youtube.com/embed/4CxdqU7Hjpg","apple":"https://maps.apple.com/?q=Yakata&ll=35.715359,139.687903"}},{"type":"Feature","geometry":{"type":"Point","coordinates":[139.7032421,35.7157036]},"properties":{"name":"Kitchen New Sanae","name_ja":null,"category":"japaneat","source":"japaneat","note":"https://www.youtube.com/embed/-3_t95zXMf8","apple":"https://maps.apple.com/?q=Kitchen%20New%20Sanae&ll=35.7157036,139.7032421"}},{"type":"Feature","geometry":{"type":"Point","coordinates":[139.6214315,35.7600022]},"properties":{"name":"Menkui","name_ja":null,"category":"japaneat","source":"japaneat","note":"https://www.youtube.com/embed/vriRLrzkDY8","apple":"https://maps.apple.com/?q=Menkui&ll=35.7600022,139.6214315"}},{"type":"Feature","geometry":{"type":"Point","coordinates":[139.6886551,35.7157549]},"properties":{"name":"Peizan","name_ja":null,"category":"japaneat","source":"japaneat","note":"https://www.youtube.com/embed/6ijVBv5vIXA","apple":"https://maps.apple.com/?q=Peizan&ll=35.7157549,139.6886551"}},{"type":"Feature","geometry":{"type":"Point","coordinates":[139.6650434,35.7028767]},"properties":{"name":"Juraku","name_ja":null,"category":"japaneat","source":"japaneat","note":"https://www.youtube.com/embed/wzOzLmGFysU","apple":"https://maps.apple.com/?q=Juraku&ll=35.7028767,139.6650434"}},{"type":"Feature","geometry":{"type":"Point","coordinates":[139.77359,35.6797261]},"properties":{"name":"Coffee Lotus","name_ja":null,"category":"japaneat","source":"japaneat","note":"https://www.youtube.com/embed/OdKQqAhgIHc","apple":"https://maps.apple.com/?q=Coffee%20Lotus&ll=35.6797261,139.77359"}},{"type":"Feature","geometry":{"type":"Point","coordinates":[139.7652311,35.6958603]},"properties":{"name":"Shin-Ochanomizu Manryu","name_ja":null,"category":"japaneat","source":"japaneat","note":"https://www.youtube.com/embed/ifm-OWBc_3Q","apple":"https://maps.apple.com/?q=Shin-Ochanomizu%20Manryu&ll=35.6958603,139.7652311"}},{"type":"Feature","geometry":{"type":"Point","coordinates":[139.6492444,35.7034307]},"properties":{"name":"Jimon","name_ja":null,"category":"japaneat","source":"japaneat","note":"https://www.youtube.com/embed/9tRGTAHqVbU","apple":"https://maps.apple.com/?q=Jimon&ll=35.7034307,139.6492444"}},{"type":"Feature","geometry":{"type":"Point","coordinates":[140.0174219,35.6941031]},"properties":{"name":"Gyozanpo","name_ja":null,"category":"japaneat","source":"japaneat","note":"https://www.youtube.com/embed/meLuJZ1XR-o","apple":"https://maps.apple.com/?q=Gyozanpo&ll=35.6941031,140.0174219"}},{"type":"Feature","geometry":{"type":"Point","coordinates":[140.0088524,35.6965225]},"properties":{"name":"Ramen Janjan main store","name_ja":null,"category":"japaneat","source":"japaneat","note":"https://www.youtube.com/embed/bT0VWFlkIIQ","apple":"https://maps.apple.com/?q=Ramen%20Janjan%20main%20store&ll=35.6965225,140.0088524"}},{"type":"Feature","geometry":{"type":"Point","coordinates":[139.7029648,35.6898283]},"properties":{"name":"Tatsuya Shinjuku","name_ja":null,"category":"japaneat","source":"japaneat","note":"https://www.youtube.com/embed/2M52yoaL7BE","apple":"https://maps.apple.com/?q=Tatsuya%20Shinjuku&ll=35.6898283,139.7029648"}},{"type":"Feature","geometry":{"type":"Point","coordinates":[139.7449723,35.7043056]},"properties":{"name":"New Glory Restaurant","name_ja":null,"category":"japaneat","source":"japaneat","note":"https://www.youtube.com/embed/9u_E6lrJU9A","apple":"https://maps.apple.com/?q=New%20Glory%20Restaurant&ll=35.7043056,139.7449723"}},{"type":"Feature","geometry":{"type":"Point","coordinates":[139.7151945,35.7303444]},"properties":{"name":"Jiang Lai","name_ja":null,"category":"japaneat","source":"japaneat","note":"https://www.youtube.com/embed/jVPziGdf9vY","apple":"https://maps.apple.com/?q=Jiang%20Lai&ll=35.7303444,139.7151945"}},{"type":"Feature","geometry":{"type":"Point","coordinates":[139.6998545,35.6624737]},"properties":{"name":"TEXMEX FACTORY Shibuya","name_ja":null,"category":"japaneat","source":"japaneat","note":"https://www.youtube.com/embed/hKnAzeMuBQQ","apple":"https://maps.apple.com/?q=TEXMEX%20FACTORY%20Shibuya&ll=35.6624737,139.6998545"}},{"type":"Feature","geometry":{"type":"Point","coordinates":[139.7714092,35.6919581]},"properties":{"name":"Umatamaya","name_ja":null,"category":"japaneat","source":"japaneat","note":"https://www.youtube.com/embed/U2n-3C0qucs","apple":"https://maps.apple.com/?q=Umatamaya&ll=35.6919581,139.7714092"}},{"type":"Feature","geometry":{"type":"Point","coordinates":[139.6542119,35.7359136]},"properties":{"name":"Menshu Yamano","name_ja":null,"category":"japaneat","source":"japaneat","note":"https://www.youtube.com/embed/5PF1AiyqQBk","apple":"https://maps.apple.com/?q=Menshu%20Yamano&ll=35.7359136,139.6542119"}},{"type":"Feature","geometry":{"type":"Point","coordinates":[139.6683881,35.7261187]},"properties":{"name":"Restaurant Nakazato","name_ja":null,"category":"japaneat","source":"japaneat","note":"https://www.youtube.com/embed/U4gL-0djzP8","apple":"https://maps.apple.com/?q=Restaurant%20Nakazato&ll=35.7261187,139.6683881"}},{"type":"Feature","geometry":{"type":"Point","coordinates":[139.6818921,35.7221707]},"properties":{"name":"Manten Ramen","name_ja":null,"category":"japaneat","source":"japaneat","note":"https://www.youtube.com/embed/6cxD8TyZ48o","apple":"https://maps.apple.com/?q=Manten%20Ramen&ll=35.7221707,139.6818921"}},{"type":"Feature","geometry":{"type":"Point","coordinates":[139.7006809,35.6931474]},"properties":{"name":"Spontini Shinjuku","name_ja":null,"category":"japaneat","source":"japaneat","note":"https://www.youtube.com/embed/nkl1CswMkQg","apple":"https://maps.apple.com/?q=Spontini%20Shinjuku&ll=35.6931474,139.7006809"}},{"type":"Feature","geometry":{"type":"Point","coordinates":[139.6656524,35.7092475]},"properties":{"name":"Daily Chiko","name_ja":null,"category":"japaneat","source":"japaneat","note":"https://www.youtube.com/embed/2NbksQDiRFc","apple":"https://maps.apple.com/?q=Daily%20Chiko&ll=35.7092475,139.6656524"}},{"type":"Feature","geometry":{"type":"Point","coordinates":[139.6840881,35.7308554]},"properties":{"name":"中華料理 普天河","name_ja":null,"category":"japaneat","source":"japaneat","note":"https://www.youtube.com/embed/QoNIVBs_EJw","apple":"https://maps.apple.com/?q=%E4%B8%AD%E8%8F%AF%E6%96%99%E7%90%86%20%E6%99%AE%E5%A4%A9%E6%B2%B3&ll=35.7308554,139.6840881"}},{"type":"Feature","geometry":{"type":"Point","coordinates":[139.6654806,35.7097086]},"properties":{"name":"Emu","name_ja":null,"category":"japaneat","source":"japaneat","note":"https://www.youtube.com/embed/i7v7Az6sECQ","apple":"https://maps.apple.com/?q=Emu&ll=35.7097086,139.6654806"}},{"type":"Feature","geometry":{"type":"Point","coordinates":[139.6646583,35.701]},"properties":{"name":"Iga","name_ja":null,"category":"japaneat","source":"japaneat","note":"https://www.youtube.com/embed/DnSVlW6kVY8","apple":"https://maps.apple.com/?q=Iga&ll=35.701,139.6646583"}},{"type":"Feature","geometry":{"type":"Point","coordinates":[139.7535058,35.7037306]},"properties":{"name":"The Artist's Cafe","name_ja":null,"category":"japaneat","source":"japaneat","note":"https://www.youtube.com/embed/hKi1Lyy1Jgo","apple":"https://maps.apple.com/?q=The%20Artist's%20Cafe&ll=35.7037306,139.7535058"}},{"type":"Feature","geometry":{"type":"Point","coordinates":[139.653868,35.736559]},"properties":{"name":"Sapporoya","name_ja":null,"category":"japaneat","source":"japaneat","note":"https://www.youtube.com/embed/91OZBsA0wLo","apple":"https://maps.apple.com/?q=Sapporoya&ll=35.736559,139.653868"}},{"type":"Feature","geometry":{"type":"Point","coordinates":[139.6740023,35.7378567]},"properties":{"name":"Watta Shokudo","name_ja":null,"category":"japaneat","source":"japaneat","note":"https://www.youtube.com/embed/yIjd42awkvQ","apple":"https://maps.apple.com/?q=Watta%20Shokudo&ll=35.7378567,139.6740023"}},{"type":"Feature","geometry":{"type":"Point","coordinates":[139.669051,35.7390397]},"properties":{"name":"Ramen SANSAN","name_ja":null,"category":"japaneat","source":"japaneat","note":"https://www.youtube.com/embed/eRV79jPbVi0","apple":"https://maps.apple.com/?q=Ramen%20SANSAN&ll=35.7390397,139.669051"}},{"type":"Feature","geometry":{"type":"Point","coordinates":[139.7560886,35.6577408]},"properties":{"name":"Kitchen Hareya","name_ja":null,"category":"japaneat","source":"japaneat","note":"https://www.youtube.com/embed/jD0SL87-ncc","apple":"https://maps.apple.com/?q=Kitchen%20Hareya&ll=35.6577408,139.7560886"}},{"type":"Feature","geometry":{"type":"Point","coordinates":[139.5843755,35.7050898]},"properties":{"name":"Stamina Ramen Nobuchan","name_ja":null,"category":"japaneat","source":"japaneat","note":"https://www.youtube.com/embed/5tV3KF0as30","apple":"https://maps.apple.com/?q=Stamina%20Ramen%20Nobuchan&ll=35.7050898,139.5843755"}},{"type":"Feature","geometry":{"type":"Point","coordinates":[139.6944304,35.6914025]},"properties":{"name":"トラットリア ラ・ベルデ 西新宿店","name_ja":null,"category":"japaneat","source":"japaneat","note":"https://www.youtube.com/embed/_1czJxo2Hjk","apple":"https://maps.apple.com/?q=%E3%83%88%E3%83%A9%E3%83%83%E3%83%88%E3%83%AA%E3%82%A2%20%E3%83%A9%E3%83%BB%E3%83%99%E3%83%AB%E3%83%87%20%E8%A5%BF%E6%96%B0%E5%AE%BF%E5%BA%97&ll=35.6914025,139.6944304"}},{"type":"Feature","geometry":{"type":"Point","coordinates":[139.7037098,35.6724256]},"properties":{"name":"Mixer's","name_ja":null,"category":"japaneat","source":"japaneat","note":"https://www.youtube.com/embed/f470cp8UP_M","apple":"https://maps.apple.com/?q=Mixer's&ll=35.6724256,139.7037098"}},{"type":"Feature","geometry":{"type":"Point","coordinates":[139.7057951,35.6708238]},"properties":{"name":"Sandwich and cafe \"CHERMSIDE SANDWICH Harajuku Takeshita Dori\"","name_ja":null,"category":"japaneat","source":"japaneat","note":"https://www.youtube.com/embed/swuIAYPFGzE","apple":"https://maps.apple.com/?q=Sandwich%20and%20cafe%20%22CHERMSIDE%20SANDWICH%20Harajuku%20Takeshita%20Dori%22&ll=35.6708238,139.7057951"}},{"type":"Feature","geometry":{"type":"Point","coordinates":[139.7172471,35.7329404]},"properties":{"name":"Restaurant Yuki","name_ja":null,"category":"japaneat","source":"japaneat","note":"https://www.youtube.com/embed/TUUZbh3ZAko","apple":"https://maps.apple.com/?q=Restaurant%20Yuki&ll=35.7329404,139.7172471"}},{"type":"Feature","geometry":{"type":"Point","coordinates":[139.7051383,35.6706011]},"properties":{"name":"Le Shiner （レインボーフード）","name_ja":null,"category":"japaneat","source":"japaneat","note":"https://www.youtube.com/embed/b9XjZiEckCc","apple":"https://maps.apple.com/?q=Le%20Shiner%20%EF%BC%88%E3%83%AC%E3%82%A4%E3%83%B3%E3%83%9C%E3%83%BC%E3%83%95%E3%83%BC%E3%83%89%EF%BC%89&ll=35.6706011,139.7051383"}},{"type":"Feature","geometry":{"type":"Point","coordinates":[139.6794,35.6942379]},"properties":{"name":"Mickey Hanten","name_ja":null,"category":"japaneat","source":"japaneat","note":"https://www.youtube.com/embed/3dzfHOzPHmY","apple":"https://maps.apple.com/?q=Mickey%20Hanten&ll=35.6942379,139.6794"}},{"type":"Feature","geometry":{"type":"Point","coordinates":[139.6874204,35.7240717]},"properties":{"name":"Tonkatsu Daimaru","name_ja":null,"category":"japaneat","source":"japaneat","note":"https://www.youtube.com/embed/TtQZ77YXmeI","apple":"https://maps.apple.com/?q=Tonkatsu%20Daimaru&ll=35.7240717,139.6874204"}},{"type":"Feature","geometry":{"type":"Point","coordinates":[139.6562994,35.7413587]},"properties":{"name":"満州楼","name_ja":null,"category":"japaneat","source":"japaneat","note":"https://www.youtube.com/embed/EqBbNcllpjA","apple":"https://maps.apple.com/?q=%E6%BA%80%E5%B7%9E%E6%A5%BC&ll=35.7413587,139.6562994"}},{"type":"Feature","geometry":{"type":"Point","coordinates":[139.7021799,35.6896924]},"properties":{"name":"Shokudo Naganoya","name_ja":null,"category":"japaneat","source":"japaneat","note":"https://www.youtube.com/embed/ObM_d2rZxOc","apple":"https://maps.apple.com/?q=Shokudo%20Naganoya&ll=35.6896924,139.7021799"}},{"type":"Feature","geometry":{"type":"Point","coordinates":[139.7155713,35.7292571]},"properties":{"name":"Spaghetti no Pancho","name_ja":null,"category":"japaneat","source":"japaneat","note":"https://www.youtube.com/embed/e_ZPiQREUvk","apple":"https://maps.apple.com/?q=Spaghetti%20no%20Pancho&ll=35.7292571,139.7155713"}},{"type":"Feature","geometry":{"type":"Point","coordinates":[139.6824617,35.7073468]},"properties":{"name":"Kitchen Donald","name_ja":null,"category":"japaneat","source":"japaneat","note":"https://www.youtube.com/embed/lz-2g9V4SIQ","apple":"https://maps.apple.com/?q=Kitchen%20Donald&ll=35.7073468,139.6824617"}},{"type":"Feature","geometry":{"type":"Point","coordinates":[139.714799,35.7298528]},"properties":{"name":"スイーツ缶『なまくり』池袋自販機","name_ja":null,"category":"japaneat","source":"japaneat","note":"https://www.youtube.com/embed/O19Xm-fr95Q","apple":"https://maps.apple.com/?q=%E3%82%B9%E3%82%A4%E3%83%BC%E3%83%84%E7%BC%B6%E3%80%8E%E3%81%AA%E3%81%BE%E3%81%8F%E3%82%8A%E3%80%8F%E6%B1%A0%E8%A2%8B%E8%87%AA%E8%B2%A9%E6%A9%9F&ll=35.7298528,139.714799"}},{"type":"Feature","geometry":{"type":"Point","coordinates":[139.7094849,35.7118048]},"properties":{"name":"Kitchen Tanizawa","name_ja":null,"category":"japaneat","source":"japaneat","note":"https://www.youtube.com/embed/haXotYJ4xu0","apple":"https://maps.apple.com/?q=Kitchen%20Tanizawa&ll=35.7118048,139.7094849"}},{"type":"Feature","geometry":{"type":"Point","coordinates":[139.6695046,35.7128281]},"properties":{"name":"Goko Restaurant","name_ja":null,"category":"japaneat","source":"japaneat","note":"https://www.youtube.com/embed/9nS6yh4grvM","apple":"https://maps.apple.com/?q=Goko%20Restaurant&ll=35.7128281,139.6695046"}},{"type":"Feature","geometry":{"type":"Point","coordinates":[139.7668691,35.6812878]},"properties":{"name":"Mameda Gransta Tokyo (Inarizushi Specialty Store)","name_ja":null,"category":"japaneat","source":"japaneat","note":"https://www.youtube.com/embed/7t1URhEVnio","apple":"https://maps.apple.com/?q=Mameda%20Gransta%20Tokyo%20(Inarizushi%20Specialty%20Store)&ll=35.6812878,139.7668691"}},{"type":"Feature","geometry":{"type":"Point","coordinates":[139.7172471,35.7329404]},"properties":{"name":"皇庭餃子坊 池袋店","name_ja":null,"category":"japaneat","source":"japaneat","note":"https://www.youtube.com/embed/dGIcTevdfNs","apple":"https://maps.apple.com/?q=%E7%9A%87%E5%BA%AD%E9%A4%83%E5%AD%90%E5%9D%8A%20%E6%B1%A0%E8%A2%8B%E5%BA%97&ll=35.7329404,139.7172471"}},{"type":"Feature","geometry":{"type":"Point","coordinates":[139.6672093,35.6587847]},"properties":{"name":"The Pizza Shimokitazawa","name_ja":null,"category":"japaneat","source":"japaneat","note":"https://www.youtube.com/embed/nC5viUS_Xf4","apple":"https://maps.apple.com/?q=The%20Pizza%20Shimokitazawa&ll=35.6587847,139.6672093"}},{"type":"Feature","geometry":{"type":"Point","coordinates":[139.6320456,35.7596717]},"properties":{"name":"Kikyoya","name_ja":null,"category":"japaneat","source":"japaneat","note":"https://www.youtube.com/embed/RdfYTuwLdAM","apple":"https://maps.apple.com/?q=Kikyoya&ll=35.7596717,139.6320456"}},{"type":"Feature","geometry":{"type":"Point","coordinates":[139.6666426,35.7082264]},"properties":{"name":"ケンちゃんカレー 中野店","name_ja":null,"category":"japaneat","source":"japaneat","note":"https://www.youtube.com/embed/ZIvTpdB4a98","apple":"https://maps.apple.com/?q=%E3%82%B1%E3%83%B3%E3%81%A1%E3%82%83%E3%82%93%E3%82%AB%E3%83%AC%E3%83%BC%20%E4%B8%AD%E9%87%8E%E5%BA%97&ll=35.7082264,139.6666426"}},{"type":"Feature","geometry":{"type":"Point","coordinates":[139.7750854,35.7112609]},"properties":{"name":"Crown Ace Ueno","name_ja":null,"category":"japaneat","source":"japaneat","note":"https://www.youtube.com/embed/U-fOyucZEpo","apple":"https://maps.apple.com/?q=Crown%20Ace%20Ueno&ll=35.7112609,139.7750854"}},{"type":"Feature","geometry":{"type":"Point","coordinates":[139.712438,35.730907]},"properties":{"name":"Cafe＆Bar RAGE ST 池袋東口","name_ja":null,"category":"japaneat","source":"japaneat","note":"https://www.youtube.com/embed/nw_EARsahIk","apple":"https://maps.apple.com/?q=Cafe%EF%BC%86Bar%20RAGE%20ST%20%E6%B1%A0%E8%A2%8B%E6%9D%B1%E5%8F%A3&ll=35.730907,139.712438"}},{"type":"Feature","geometry":{"type":"Point","coordinates":[139.7689311,35.6794084]},"properties":{"name":"POPUPラーメン 東京ミッドタウン八重洲店","name_ja":null,"category":"japaneat","source":"japaneat","note":"https://www.youtube.com/embed/YSkIbsQtEEg","apple":"https://maps.apple.com/?q=POPUP%E3%83%A9%E3%83%BC%E3%83%A1%E3%83%B3%20%E6%9D%B1%E4%BA%AC%E3%83%9F%E3%83%83%E3%83%89%E3%82%BF%E3%82%A6%E3%83%B3%E5%85%AB%E9%87%8D%E6%B4%B2%E5%BA%97&ll=35.6794084,139.7689311"}},{"type":"Feature","geometry":{"type":"Point","coordinates":[139.6996282,35.6825683]},"properties":{"name":"Shōga-tei","name_ja":null,"category":"japaneat","source":"japaneat","note":"https://www.youtube.com/embed/fcic6xU6E64","apple":"https://maps.apple.com/?q=Sh%C5%8Dga-tei&ll=35.6825683,139.6996282"}},{"type":"Feature","geometry":{"type":"Point","coordinates":[139.6690937,35.7391049]},"properties":{"name":"Osome","name_ja":null,"category":"japaneat","source":"japaneat","note":"https://www.youtube.com/embed/EAfjKWqdnDI","apple":"https://maps.apple.com/?q=Osome&ll=35.7391049,139.6690937"}},{"type":"Feature","geometry":{"type":"Point","coordinates":[139.7379119,35.716853]},"properties":{"name":"DONBURI TARO","name_ja":null,"category":"japaneat","source":"japaneat","note":"https://www.youtube.com/embed/ee7sVsfU_Mo","apple":"https://maps.apple.com/?q=DONBURI%20TARO&ll=35.716853,139.7379119"}},{"type":"Feature","geometry":{"type":"Point","coordinates":[139.7154623,35.72912]},"properties":{"name":"Bejiro","name_ja":null,"category":"japaneat","source":"japaneat","note":"https://www.youtube.com/embed/NGaXHZihtqE","apple":"https://maps.apple.com/?q=Bejiro&ll=35.72912,139.7154623"}},{"type":"Feature","geometry":{"type":"Point","coordinates":[139.7004624,35.6965463]},"properties":{"name":"Grill & Bar Hanaya","name_ja":null,"category":"japaneat","source":"japaneat","note":"https://www.youtube.com/embed/E1UIkcuwg8c","apple":"https://maps.apple.com/?q=Grill%20%26%20Bar%20Hanaya&ll=35.6965463,139.7004624"}},{"type":"Feature","geometry":{"type":"Point","coordinates":[139.678286,35.73832]},"properties":{"name":"Men-ya Kintoki","name_ja":null,"category":"japaneat","source":"japaneat","note":"https://www.youtube.com/embed/hadYbcSV6A0","apple":"https://maps.apple.com/?q=Men-ya%20Kintoki&ll=35.73832,139.678286"}},{"type":"Feature","geometry":{"type":"Point","coordinates":[139.7671229,35.6819409]},"properties":{"name":"Tonkatsu Maisen Gransta Tokyo Branch","name_ja":null,"category":"japaneat","source":"japaneat","note":"https://www.youtube.com/embed/Yl2LPO8xUHQ","apple":"https://maps.apple.com/?q=Tonkatsu%20Maisen%20Gransta%20Tokyo%20Branch&ll=35.6819409,139.7671229"}},{"type":"Feature","geometry":{"type":"Point","coordinates":[139.784159,35.6905055]},"properties":{"name":"Kokeshi","name_ja":null,"category":"japaneat","source":"japaneat","note":"https://www.youtube.com/embed/pijvNyl8hg0","apple":"https://maps.apple.com/?q=Kokeshi&ll=35.6905055,139.784159"}},{"type":"Feature","geometry":{"type":"Point","coordinates":[139.6875967,35.7151521]},"properties":{"name":"サワディー","name_ja":null,"category":"japaneat","source":"japaneat","note":"https://www.youtube.com/embed/SPCDRocohw4","apple":"https://maps.apple.com/?q=%E3%82%B5%E3%83%AF%E3%83%87%E3%82%A3%E3%83%BC&ll=35.7151521,139.6875967"}},{"type":"Feature","geometry":{"type":"Point","coordinates":[139.6513792,35.7371434]},"properties":{"name":"SIM SIM","name_ja":null,"category":"japaneat","source":"japaneat","note":"https://www.youtube.com/embed/bcajWtgz7Dg","apple":"https://maps.apple.com/?q=SIM%20SIM&ll=35.7371434,139.6513792"}},{"type":"Feature","geometry":{"type":"Point","coordinates":[139.6686715,35.6936345]},"properties":{"name":"Naochan","name_ja":null,"category":"japaneat","source":"japaneat","note":"https://www.youtube.com/embed/rfjaLMXLeyM","apple":"https://maps.apple.com/?q=Naochan&ll=35.6936345,139.6686715"}},{"type":"Feature","geometry":{"type":"Point","coordinates":[139.6525525,35.7383217]},"properties":{"name":"Aji Suki-desu-ka?","name_ja":null,"category":"japaneat","source":"japaneat","note":"https://www.youtube.com/embed/kjMGGThmvZI","apple":"https://maps.apple.com/?q=Aji%20Suki-desu-ka%3F&ll=35.7383217,139.6525525"}},{"type":"Feature","geometry":{"type":"Point","coordinates":[139.7040341,35.7227814]},"properties":{"name":"Sasaki","name_ja":null,"category":"japaneat","source":"japaneat","note":"https://www.youtube.com/embed/sMGVB5ppkYE","apple":"https://maps.apple.com/?q=Sasaki&ll=35.7227814,139.7040341"}},{"type":"Feature","geometry":{"type":"Point","coordinates":[139.6734981,35.7233863]},"properties":{"name":"Tetchan Ramen","name_ja":null,"category":"japaneat","source":"japaneat","note":"https://www.youtube.com/embed/FxH1ZH5Ww0I","apple":"https://maps.apple.com/?q=Tetchan%20Ramen&ll=35.7233863,139.6734981"}},{"type":"Feature","geometry":{"type":"Point","coordinates":[139.7056669,35.7323086]},"properties":{"name":"カレーは飲み物。池袋本店","name_ja":null,"category":"japaneat","source":"japaneat","note":"https://www.youtube.com/embed/YniBtQpx0GQ","apple":"https://maps.apple.com/?q=%E3%82%AB%E3%83%AC%E3%83%BC%E3%81%AF%E9%A3%B2%E3%81%BF%E7%89%A9%E3%80%82%E6%B1%A0%E8%A2%8B%E6%9C%AC%E5%BA%97&ll=35.7323086,139.7056669"}},{"type":"Feature","geometry":{"type":"Point","coordinates":[139.6522633,35.73748]},"properties":{"name":"Inosho","name_ja":null,"category":"japaneat","source":"japaneat","note":"https://www.youtube.com/embed/ZtktYLGKGII","apple":"https://maps.apple.com/?q=Inosho&ll=35.73748,139.6522633"}},{"type":"Feature","geometry":{"type":"Point","coordinates":[139.7135594,35.7282591]},"properties":{"name":"CHEESE CHEESE ＆ Meat. COMTE","name_ja":null,"category":"japaneat","source":"japaneat","note":"https://www.youtube.com/embed/iObHZ8rgfFo","apple":"https://maps.apple.com/?q=CHEESE%20CHEESE%20%EF%BC%86%20Meat.%20COMTE&ll=35.7282591,139.7135594"}},{"type":"Feature","geometry":{"type":"Point","coordinates":[139.7161642,35.7255231]},"properties":{"name":"UCHOUTEN","name_ja":null,"category":"japaneat","source":"japaneat","note":"https://www.youtube.com/embed/9JthUD7h5AI","apple":"https://maps.apple.com/?q=UCHOUTEN&ll=35.7255231,139.7161642"}},{"type":"Feature","geometry":{"type":"Point","coordinates":[139.7181072,35.7092768]},"properties":{"name":"Sanpin Shokudo","name_ja":null,"category":"japaneat","source":"japaneat","note":"https://www.youtube.com/embed/8X1tH0VvjW0","apple":"https://maps.apple.com/?q=Sanpin%20Shokudo&ll=35.7092768,139.7181072"}},{"type":"Feature","geometry":{"type":"Point","coordinates":[139.655015,35.736487]},"properties":{"name":"Kairai","name_ja":null,"category":"japaneat","source":"japaneat","note":"https://www.youtube.com/embed/rDHw8H-PEjk","apple":"https://maps.apple.com/?q=Kairai&ll=35.736487,139.655015"}},{"type":"Feature","geometry":{"type":"Point","coordinates":[139.6892507,35.723115]},"properties":{"name":"Kagetsuan","name_ja":null,"category":"japaneat","source":"japaneat","note":"https://www.youtube.com/embed/gf9TH2H_wQA","apple":"https://maps.apple.com/?q=Kagetsuan&ll=35.723115,139.6892507"}},{"type":"Feature","geometry":{"type":"Point","coordinates":[139.7119264,35.7306987]},"properties":{"name":"ナポリの殿堂 池袋店","name_ja":null,"category":"japaneat","source":"japaneat","note":"https://www.youtube.com/embed/hMD_3hbRh6k","apple":"https://maps.apple.com/?q=%E3%83%8A%E3%83%9D%E3%83%AA%E3%81%AE%E6%AE%BF%E5%A0%82%20%E6%B1%A0%E8%A2%8B%E5%BA%97&ll=35.7306987,139.7119264"}}]}