{"type": "FeatureCollection", "features": [{"type": "Feature", "geometry": {"type": "Point", "coordinates": [139.7057319, 35.671513]}, "properties": {"name": "Closet Child (Harajuku / Vivienne Westwood)", "name_ja": null, "category": "shop-fashion", "source": "vk", "note": "Secondhand Vivienne Westwood focus", "area": "Harajuku", "apple": "https://maps.apple.com/?q=Closet%20Child%20%28Harajuku%20/%20Vivienne%20Westwood%29&ll=35.671513,139.7057319"}}, {"type": "Feature", "geometry": {"type": "Point", "coordinates": [139.7031217, 35.6902676]}, "properties": {"name": "Disk Union Shinjuku", "name_ja": null, "category": "shop-cd", "source": "vk", "note": "Multi-floor; check the metal/indies/J-indie floors", "area": "Shinjuku", "apple": "https://maps.apple.com/?q=Disk%20Union%20Shinjuku&ll=35.6902676,139.7031217"}}, {"type": "Feature", "geometry": {"type": "Point", "coordinates": [139.6970256, 35.6612178]}, "properties": {"name": "Disk Union Shibuya", "name_ja": null, "category": "shop-cd", "source": "vk", "note": null, "area": "Shibuya", "apple": "https://maps.apple.com/?q=Disk%20Union%20Shibuya&ll=35.6612178,139.6970256"}}]}