{"type": "FeatureCollection", "features": [{"type": "Feature", "properties": {}, "geometry": {"type": "Polygon", "coordinates": [[[139.6786, 35.683], [139.7186, 35.683], [139.7186, 35.723000000000006], [139.6786, 35.723000000000006], [139.6786, 35.683]]]}}, {"type": "Feature", "properties": {}, "geometry": {"type": "Polygon", "coordinates": [[[139.68419999999998, 35.6688], [139.7242, 35.6688], [139.7242, 35.708800000000004], [139.68419999999998, 35.708800000000004], [139.68419999999998, 35.6688]]]}}, {"type": "Feature", "properties": {}, "geometry": {"type": "Polygon", "coordinates": [[[139.68949999999998, 35.665099999999995], [139.7295, 35.665099999999995], [139.7295, 35.7051], [139.68949999999998, 35.7051], [139.68949999999998, 35.665099999999995]]]}}, {"type": "Feature", "properties": {}, "geometry": {"type": "Polygon", "coordinates": [[[139.6717, 35.6695], [139.7117, 35.6695], [139.7117, 35.709500000000006], [139.6717, 35.709500000000006], [139.6717, 35.6695]]]}}, {"type": "Feature", "properties": {}, "geometry": {"type": "Polygon", "coordinates": [[[139.68529999999998, 35.6797], [139.7253, 35.6797], [139.7253, 35.7197], [139.68529999999998, 35.7197], [139.68529999999998, 35.6797]]]}}, {"type": "Feature", "properties": {}, "geometry": {"type": "Polygon", "coordinates": [[[139.7509, 35.678399999999996], [139.79090000000002, 35.678399999999996], [139.79090000000002, 35.7184], [139.7509, 35.7184], [139.7509, 35.678399999999996]]]}}, {"type": "Feature", "properties": {}, "geometry": {"type": "Polygon", "coordinates": [[[139.73839999999998, 35.675999999999995], [139.7784, 35.675999999999995], [139.7784, 35.716], [139.73839999999998, 35.716], [139.73839999999998, 35.675999999999995]]]}}, {"type": "Feature", "properties": {}, "geometry": {"type": "Polygon", "coordinates": [[[139.6949, 35.7112], [139.7349, 35.7112], [139.7349, 35.751200000000004], [139.6949, 35.751200000000004], [139.6949, 35.7112]]]}}, {"type": "Feature", "properties": {}, "geometry": {"type": "Polygon", "coordinates": [[[139.6958, 35.7097], [139.7358, 35.7097], [139.7358, 35.749700000000004], [139.6958, 35.749700000000004], [139.6958, 35.7097]]]}}, {"type": "Feature", "properties": {}, "geometry": {"type": "Polygon", "coordinates": [[[139.64929999999998, 35.6879], [139.6893, 35.6879], [139.6893, 35.727900000000005], [139.64929999999998, 35.727900000000005], [139.64929999999998, 35.6879]]]}}, {"type": "Feature", "properties": {}, "geometry": {"type": "Polygon", "coordinates": [[[139.64909999999998, 35.684099999999994], [139.6891, 35.684099999999994], [139.6891, 35.7241], [139.64909999999998, 35.7241], [139.64909999999998, 35.684099999999994]]]}}, {"type": "Feature", "properties": {}, "geometry": {"type": "Polygon", "coordinates": [[[139.2935, 35.376], [139.33350000000002, 35.376], [139.33350000000002, 35.416000000000004], [139.2935, 35.416000000000004], [139.2935, 35.376]]]}}, {"type": "Feature", "properties": {}, "geometry": {"type": "Polygon", "coordinates": [[[139.23499999999999, 35.4006], [139.275, 35.4006], [139.275, 35.4406], [139.23499999999999, 35.4406], [139.23499999999999, 35.4006]]]}}, {"type": "Feature", "properties": {}, "geometry": {"type": "Polygon", "coordinates": [[[139.22449999999998, 35.407799999999995], [139.2645, 35.407799999999995], [139.2645, 35.4478], [139.22449999999998, 35.4478], [139.22449999999998, 35.407799999999995]]]}}, {"type": "Feature", "properties": {}, "geometry": {"type": "Polygon", "coordinates": [[[139.2113, 35.4208], [139.25130000000001, 35.4208], [139.25130000000001, 35.460800000000006], [139.2113, 35.460800000000006], [139.2113, 35.4208]]]}}, {"type": "Feature", "properties": {}, "geometry": {"type": "Polygon", "coordinates": [[[140.0912, 36.062599999999996], [140.1312, 36.062599999999996], [140.1312, 36.1026], [140.0912, 36.1026], [140.0912, 36.062599999999996]]]}}, {"type": "Feature", "properties": {}, "geometry": {"type": "Polygon", "coordinates": [[[140.0813, 36.193099999999994], [140.12130000000002, 36.193099999999994], [140.12130000000002, 36.2331], [140.0813, 36.2331], [140.0813, 36.193099999999994]]]}}, {"type": "Feature", "properties": {}, "geometry": {"type": "Polygon", "coordinates": [[[140.08669999999998, 36.2054], [140.1267, 36.2054], [140.1267, 36.245400000000004], [140.08669999999998, 36.245400000000004], [140.08669999999998, 36.2054]]]}}, {"type": "Feature", "properties": {}, "geometry": {"type": "Polygon", "coordinates": [[[140.09269999999998, 36.2024], [140.1327, 36.2024], [140.1327, 36.2424], [140.09269999999998, 36.2424], [140.09269999999998, 36.2024]]]}}, {"type": "Feature", "properties": {}, "geometry": {"type": "Polygon", "coordinates": [[[140.0989, 36.199799999999996], [140.1389, 36.199799999999996], [140.1389, 36.2398], [140.0989, 36.2398], [140.0989, 36.199799999999996]]]}}, {"type": "Feature", "properties": {}, "geometry": {"type": "Polygon", "coordinates": [[[139.74509999999998, 35.662699999999994], [139.7851, 35.662699999999994], [139.7851, 35.7027], [139.74509999999998, 35.7027], [139.74509999999998, 35.662699999999994]]]}}, {"type": "Feature", "properties": {}, "geometry": {"type": "Polygon", "coordinates": [[[139.80239999999998, 35.1481], [139.8424, 35.1481], [139.8424, 35.188100000000006], [139.80239999999998, 35.188100000000006], [139.80239999999998, 35.1481]]]}}, {"type": "Feature", "properties": {}, "geometry": {"type": "Polygon", "coordinates": [[[139.8061, 35.140299999999996], [139.8461, 35.140299999999996], [139.8461, 35.1803], [139.8061, 35.1803], [139.8061, 35.140299999999996]]]}}, {"type": "Feature", "properties": {}, "geometry": {"type": "Polygon", "coordinates": [[[139.77689999999998, 35.689299999999996], [139.8169, 35.689299999999996], [139.8169, 35.7293], [139.77689999999998, 35.7293], [139.77689999999998, 35.689299999999996]]]}}, {"type": "Feature", "properties": {}, "geometry": {"type": "Polygon", "coordinates": [[[139.5998, 36.7275], [139.6398, 36.7275], [139.6398, 36.767500000000005], [139.5998, 36.767500000000005], [139.5998, 36.7275]]]}}, {"type": "Feature", "properties": {}, "geometry": {"type": "Polygon", "coordinates": [[[139.584, 36.7333], [139.62400000000002, 36.7333], [139.62400000000002, 36.773300000000006], [139.584, 36.773300000000006], [139.584, 36.7333]]]}}, {"type": "Feature", "properties": {}, "geometry": {"type": "Polygon", "coordinates": [[[139.57909999999998, 36.73759999999999], [139.6191, 36.73759999999999], [139.6191, 36.7776], [139.57909999999998, 36.7776], [139.57909999999998, 36.73759999999999]]]}}, {"type": "Feature", "properties": {}, "geometry": {"type": "Polygon", "coordinates": [[[139.4836, 36.718199999999996], [139.52360000000002, 36.718199999999996], [139.52360000000002, 36.7582], [139.4836, 36.7582], [139.4836, 36.718199999999996]]]}}, {"type": "Feature", "properties": {}, "geometry": {"type": "Polygon", "coordinates": [[[139.49609999999998, 36.717299999999994], [139.5361, 36.717299999999994], [139.5361, 36.7573], [139.49609999999998, 36.7573], [139.49609999999998, 36.717299999999994]]]}}, {"type": "Feature", "properties": {}, "geometry": {"type": "Polygon", "coordinates": [[[139.4569, 36.7168], [139.4969, 36.7168], [139.4969, 36.756800000000005], [139.4569, 36.756800000000005], [139.4569, 36.7168]]]}}, {"type": "Feature", "properties": {}, "geometry": {"type": "Polygon", "coordinates": [[[139.68019999999999, 35.643499999999996], [139.7202, 35.643499999999996], [139.7202, 35.6835], [139.68019999999999, 35.6835], [139.68019999999999, 35.643499999999996]]]}}, {"type": "Feature", "properties": {}, "geometry": {"type": "Polygon", "coordinates": [[[139.68509999999998, 35.6459], [139.7251, 35.6459], [139.7251, 35.685900000000004], [139.68509999999998, 35.685900000000004], [139.68509999999998, 35.6459]]]}}, {"type": "Feature", "properties": {}, "geometry": {"type": "Polygon", "coordinates": [[[139.6841, 35.6461], [139.72410000000002, 35.6461], [139.72410000000002, 35.6861], [139.6841, 35.6861], [139.6841, 35.6461]]]}}, {"type": "Feature", "properties": {}, "geometry": {"type": "Polygon", "coordinates": [[[139.6469, 35.641299999999994], [139.6869, 35.641299999999994], [139.6869, 35.6813], [139.6469, 35.6813], [139.6469, 35.641299999999994]]]}}, {"type": "Feature", "properties": {}, "geometry": {"type": "Polygon", "coordinates": [[[139.64909999999998, 35.6451], [139.6891, 35.6451], [139.6891, 35.685100000000006], [139.64909999999998, 35.685100000000006], [139.64909999999998, 35.6451]]]}}, {"type": "Feature", "properties": {}, "geometry": {"type": "Polygon", "coordinates": [[[139.63, 35.6853], [139.67000000000002, 35.6853], [139.67000000000002, 35.725300000000004], [139.63, 35.725300000000004], [139.63, 35.6853]]]}}, {"type": "Feature", "properties": {}, "geometry": {"type": "Polygon", "coordinates": [[[139.62619999999998, 35.6815], [139.6662, 35.6815], [139.6662, 35.721500000000006], [139.62619999999998, 35.721500000000006], [139.62619999999998, 35.6815]]]}}, {"type": "Feature", "properties": {}, "geometry": {"type": "Polygon", "coordinates": [[[139.70909999999998, 35.664699999999996], [139.7491, 35.664699999999996], [139.7491, 35.7047], [139.70909999999998, 35.7047], [139.70909999999998, 35.664699999999996]]]}}]}